{"type":"FeatureCollection","name":"harvey_cedars_road_centerlines","metadata":{"source":"NJOGIS NG911 Road Centerlines (Tran_road)","url":"https://services2.arcgis.com/XVOqAjTOJ5P6ngMu/arcgis/rest/services/Tran_road/FeatureServer/0","query_url":"https://services2.arcgis.com/XVOqAjTOJ5P6ngMu/arcgis/rest/services/Tran_road/FeatureServer/0/query","retrieved_at_utc":"2026-09-04T20:05:12.736270+00:00","source_last_edit_date":1785341586960,"out_sr":4326,"query_envelope_wgs84":[-74.1592399,39.6851446,-74.1296699,39.7153568],"spatial_relationship":"esriSpatialRelIntersects","boundary_file":"harvey_cedars_boundary.geojson","boundary_sha256":"f848279f9c492351128561cc1f41f5b4e718df066a34f7424f7e0b2d3a1a37b5","fields":["OBJECTID","PRIMENAME","ELEVTYP_F","ELEVTYP_T"],"feature_count":228,"complete_objectid_inventory_verified":true,"municipal_clipping":"Envelope selection only; clip against the actual municipal boundary in the application."},"features":[{"type":"Feature","id":1638,"properties":{"OBJECTID":1638,"PRIMENAME":"North Long Beach Boulevard","ELEVTYP_F":0,"ELEVTYP_T":0},"geometry":{"type":"LineString","coordinates":[[-74.1330217653807,39.7085914328882],[-74.1328751209412,39.7088961594294],[-74.1326948835931,39.7092747150294]]}},{"type":"Feature","id":4789,"properties":{"OBJECTID":4789,"PRIMENAME":"East 73rd Street","ELEVTYP_F":0,"ELEVTYP_T":0},"geometry":{"type":"LineString","coordinates":[[-74.135012465289,39.7022025332328],[-74.1361963577459,39.702549738144]]}},{"type":"Feature","id":6010,"properties":{"OBJECTID":6010,"PRIMENAME":"North Long Beach Boulevard","ELEVTYP_F":0,"ELEVTYP_T":0},"geometry":{"type":"LineString","coordinates":[[-74.1469944279734,39.6857769362784],[-74.1471606862645,39.6855187462529],[-74.1473049578641,39.6853009574661]]}},{"type":"Feature","id":6397,"properties":{"OBJECTID":6397,"PRIMENAME":"East 78th Street","ELEVTYP_F":0,"ELEVTYP_T":0},"geometry":{"type":"LineString","coordinates":[[-74.1345574955371,39.7059525261024],[-74.133375962162,39.7055935067977]]}},{"type":"Feature","id":7128,"properties":{"OBJECTID":7128,"PRIMENAME":"North Long Beach Boulevard","ELEVTYP_F":0,"ELEVTYP_T":0},"geometry":{"type":"LineString","coordinates":[[-74.1364279774237,39.7020623463802],[-74.1362638668801,39.7024119335451],[-74.1361963577459,39.702549738144]]}},{"type":"Feature","id":7174,"properties":{"OBJECTID":7174,"PRIMENAME":"Union Avenue","ELEVTYP_F":0,"ELEVTYP_T":0},"geometry":{"type":"LineString","coordinates":[[-74.1459971179501,39.6882657112697],[-74.1464884967272,39.6884560434513]]}},{"type":"Feature","id":8409,"properties":{"OBJECTID":8409,"PRIMENAME":"North Long Beach Boulevard","ELEVTYP_F":0,"ELEVTYP_T":0},"geometry":{"type":"LineString","coordinates":[[-74.1372026496595,39.7006641745692],[-74.137176206882,39.700704615042],[-74.1369895926276,39.7009928862815],[-74.1368812407427,39.7011727071698],[-74.1368760740767,39.7011819984966],[-74.1368616438209,39.7012080076586]]}},{"type":"Feature","id":8635,"properties":{"OBJECTID":8635,"PRIMENAME":"Long Beach Boulevard","ELEVTYP_F":0,"ELEVTYP_T":0},"geometry":{"type":"LineString","coordinates":[[-74.1308284780021,39.7136912088048],[-74.1311097158661,39.7131086401135]]}},{"type":"Feature","id":11557,"properties":{"OBJECTID":11557,"PRIMENAME":"West Essex Avenue","ELEVTYP_F":0,"ELEVTYP_T":0},"geometry":{"type":"LineString","coordinates":[[-74.1419468245213,39.7004043706167],[-74.1413008134335,39.7001558378561]]}},{"type":"Feature","id":11821,"properties":{"OBJECTID":11821,"PRIMENAME":"East 69th Street","ELEVTYP_F":0,"ELEVTYP_T":0},"geometry":{"type":"LineString","coordinates":[[-74.1375476138145,39.700142590578],[-74.1366605639437,39.6998025059402]]}},{"type":"Feature","id":12229,"properties":{"OBJECTID":12229,"PRIMENAME":"North Long Beach Boulevard","ELEVTYP_F":0,"ELEVTYP_T":0},"geometry":{"type":"LineString","coordinates":[[-74.1454798165117,39.6880653310104],[-74.1454561098283,39.6881008673009],[-74.1453056801785,39.6883279711911]]}},{"type":"Feature","id":14555,"properties":{"OBJECTID":14555,"PRIMENAME":"North Long Beach Boulevard","ELEVTYP_F":0,"ELEVTYP_T":0},"geometry":{"type":"LineString","coordinates":[[-74.1431399177913,39.6916286134605],[-74.1428780791452,39.692028212968],[-74.1426683624588,39.6923467881253]]}},{"type":"Feature","id":15352,"properties":{"OBJECTID":15352,"PRIMENAME":"68th Street","ELEVTYP_F":0,"ELEVTYP_T":0},"geometry":{"type":"LineString","coordinates":[[-74.1369790668582,39.6992572563264],[-74.137777611718,39.6995839664453],[-74.137807122014,39.6996014502478],[-74.1378808966671,39.6996451570155]]}},{"type":"Feature","id":15611,"properties":{"OBJECTID":15611,"PRIMENAME":"North Long Beach Boulevard","ELEVTYP_F":0,"ELEVTYP_T":0},"geometry":{"type":"LineString","coordinates":[[-74.1412058474505,39.6945749780128],[-74.1411467398113,39.6946653977488],[-74.1407960096425,39.69519913715],[-74.1407433552475,39.6952784288962]]}},{"type":"Feature","id":18026,"properties":{"OBJECTID":18026,"PRIMENAME":"Unnamed Segment","ELEVTYP_F":0,"ELEVTYP_T":0},"geometry":{"type":"LineString","coordinates":[[-74.1447121074448,39.6892367681239],[-74.1437172479345,39.6888691060139]]}},{"type":"Feature","id":19250,"properties":{"OBJECTID":19250,"PRIMENAME":"Camden Avenue","ELEVTYP_F":0,"ELEVTYP_T":0},"geometry":{"type":"LineString","coordinates":[[-74.1398233466838,39.6977258588649],[-74.1404997206752,39.6979934178554]]}},{"type":"Feature","id":19423,"properties":{"OBJECTID":19423,"PRIMENAME":"North Long Beach Boulevard","ELEVTYP_F":0,"ELEVTYP_T":0},"geometry":{"type":"LineString","coordinates":[[-74.1348835872918,39.7052776650369],[-74.1347440401795,39.7055673711806],[-74.1346018026175,39.7058615156893],[-74.1345574955371,39.7059525261024]]}},{"type":"Feature","id":20887,"properties":{"OBJECTID":20887,"PRIMENAME":"Unnamed Segment","ELEVTYP_F":0,"ELEVTYP_T":0},"geometry":{"type":"LineString","coordinates":[[-74.1449350220114,39.6888969634995],[-74.1440742427543,39.6885825337141],[-74.1439288381202,39.6888307811152]]}},{"type":"Feature","id":21118,"properties":{"OBJECTID":21118,"PRIMENAME":"East 77th Street","ELEVTYP_F":0,"ELEVTYP_T":0},"geometry":{"type":"LineString","coordinates":[[-74.1337089542455,39.7049396466188],[-74.1348835872918,39.7052776650369]]}},{"type":"Feature","id":23733,"properties":{"OBJECTID":23733,"PRIMENAME":"Driftwood Lane","ELEVTYP_F":0,"ELEVTYP_T":0},"geometry":{"type":"LineString","coordinates":[[-74.1323788836589,39.711523045364],[-74.1322095099073,39.7118958696114]]}},{"type":"Feature","id":24120,"properties":{"OBJECTID":24120,"PRIMENAME":"West 80th Street","ELEVTYP_F":0,"ELEVTYP_T":0},"geometry":{"type":"LineString","coordinates":[[-74.1369527413017,39.7082083567393],[-74.1373763004347,39.7083321574045]]}},{"type":"Feature","id":27346,"properties":{"OBJECTID":27346,"PRIMENAME":"West 76th Street","ELEVTYP_F":0,"ELEVTYP_T":0},"geometry":{"type":"LineString","coordinates":[[-74.1370365348403,39.705133111066],[-74.1366889581476,39.7050344076663]]}},{"type":"Feature","id":27441,"properties":{"OBJECTID":27441,"PRIMENAME":"East Mercer Avenue","ELEVTYP_F":0,"ELEVTYP_T":0},"geometry":{"type":"LineString","coordinates":[[-74.1395810112141,39.697053118358],[-74.1384245300539,39.6965962401835]]}},{"type":"Feature","id":31215,"properties":{"OBJECTID":31215,"PRIMENAME":"West 75th Street","ELEVTYP_F":0,"ELEVTYP_T":0},"geometry":{"type":"LineString","coordinates":[[-74.1355250797176,39.7039364724977],[-74.1369148204328,39.7043348329116]]}},{"type":"Feature","id":35722,"properties":{"OBJECTID":35722,"PRIMENAME":"North Long Beach Boulevard","ELEVTYP_F":0,"ELEVTYP_T":0},"geometry":{"type":"LineString","coordinates":[[-74.1383174088543,39.6989867181461],[-74.1382658484754,39.6990664237611],[-74.1378808966671,39.6996451570155]]}},{"type":"Feature","id":37865,"properties":{"OBJECTID":37865,"PRIMENAME":"East Cape May Avenue","ELEVTYP_F":0,"ELEVTYP_T":0},"geometry":{"type":"LineString","coordinates":[[-74.144069007714,39.6902111868098],[-74.1442839859961,39.6902910804647],[-74.1446033248796,39.6904081115287]]}},{"type":"Feature","id":43930,"properties":{"OBJECTID":43930,"PRIMENAME":"Cobble Stoned Access Road Not Actual Street","ELEVTYP_F":0,"ELEVTYP_T":0},"geometry":{"type":"LineString","coordinates":[[-74.1476128724636,39.6848361338131],[-74.1487574332789,39.6852670478717]]}},{"type":"Feature","id":45429,"properties":{"OBJECTID":45429,"PRIMENAME":"East 86th Street","ELEVTYP_F":0,"ELEVTYP_T":0},"geometry":{"type":"LineString","coordinates":[[-74.1318008499445,39.7113542053987],[-74.1318590785589,39.711371192658],[-74.1319367163674,39.7113938422905]]}},{"type":"Feature","id":47410,"properties":{"OBJECTID":47410,"PRIMENAME":"East 72nd Street","ELEVTYP_F":0,"ELEVTYP_T":0},"geometry":{"type":"LineString","coordinates":[[-74.1368616438209,39.7012080076586],[-74.1370115246491,39.7012935389347],[-74.1376994310498,39.7015360506676],[-74.1377734292463,39.701569050935],[-74.1378684292786,39.701647050733],[-74.1379324322676,39.7017250501834],[-74.1379686819623,39.7018490663237],[-74.1379678505602,39.7020081745837],[-74.1378927833108,39.7021829586588],[-74.1377025691095,39.7023191996333],[-74.1376034988863,39.7023570770062],[-74.1374944315111,39.702353050673],[-74.1373544299593,39.7023440509517],[-74.1364465343601,39.7020679900533],[-74.1364279774237,39.7020623463802]]}},{"type":"Feature","id":48995,"properties":{"OBJECTID":48995,"PRIMENAME":"North Long Beach Boulevard","ELEVTYP_F":0,"ELEVTYP_T":0},"geometry":{"type":"LineString","coordinates":[[-74.144069007714,39.6902111868098],[-74.1439190474577,39.6904384118491],[-74.1435990064041,39.6909279425226]]}},{"type":"Feature","id":49127,"properties":{"OBJECTID":49127,"PRIMENAME":"Cedars Avenue","ELEVTYP_F":0,"ELEVTYP_T":0},"geometry":{"type":"LineString","coordinates":[[-74.1436801681072,39.6964450379622],[-74.1437542239175,39.6964538583779],[-74.1438798863387,39.6964828517849],[-74.1440566710983,39.6965296286318]]}},{"type":"Feature","id":49428,"properties":{"OBJECTID":49428,"PRIMENAME":"Buckingham Avenue","ELEVTYP_F":0,"ELEVTYP_T":0},"geometry":{"type":"LineString","coordinates":[[-74.1378808966671,39.6996451570155],[-74.1380232028591,39.6997137436283],[-74.1382852230156,39.699821305742],[-74.138361847266,39.6998535499833],[-74.138708734186,39.6999995169288],[-74.139524805867,39.7003216847108],[-74.1401935335445,39.7005811491092],[-74.1416049219416,39.7011432082521],[-74.1416630271858,39.7011650488989]]}},{"type":"Feature","id":55725,"properties":{"OBJECTID":55725,"PRIMENAME":"West Burlington Avenue","ELEVTYP_F":0,"ELEVTYP_T":0},"geometry":{"type":"LineString","coordinates":[[-74.1412058474505,39.6945749780128],[-74.1412633791831,39.6945830905075],[-74.1413594481744,39.694609139826],[-74.1422734612275,39.6949574020853],[-74.1424642146385,39.6950300832504]]}},{"type":"Feature","id":55730,"properties":{"OBJECTID":55730,"PRIMENAME":"Barnegat Avenue","ELEVTYP_F":0,"ELEVTYP_T":0},"geometry":{"type":"LineString","coordinates":[[-74.1429834019987,39.6984210193871],[-74.1431836603456,39.6985044259177]]}},{"type":"Feature","id":56422,"properties":{"OBJECTID":56422,"PRIMENAME":"West Essex Avenue","ELEVTYP_F":0,"ELEVTYP_T":0},"geometry":{"type":"LineString","coordinates":[[-74.1406512011655,39.6998977009299],[-74.1399837155145,39.6996395878197]]}},{"type":"Feature","id":56554,"properties":{"OBJECTID":56554,"PRIMENAME":"North Long Beach Boulevard","ELEVTYP_F":0,"ELEVTYP_T":0},"geometry":{"type":"LineString","coordinates":[[-74.1378808966671,39.6996451570155],[-74.1378254412851,39.6997285298559],[-74.1375476138145,39.700142590578]]}},{"type":"Feature","id":56669,"properties":{"OBJECTID":56669,"PRIMENAME":"East Bergen Avenue","ELEVTYP_F":0,"ELEVTYP_T":0},"geometry":{"type":"LineString","coordinates":[[-74.1449451049366,39.6869699134499],[-74.1457726491343,39.6872898769031],[-74.1459449361359,39.6873642561676]]}},{"type":"Feature","id":61566,"properties":{"OBJECTID":61566,"PRIMENAME":"Passaic Avenue","ELEVTYP_F":0,"ELEVTYP_T":0},"geometry":{"type":"LineString","coordinates":[[-74.1417057917087,39.6938157975744],[-74.1405219401373,39.6933539140974]]}},{"type":"Feature","id":61642,"properties":{"OBJECTID":61642,"PRIMENAME":"East 79th Street","ELEVTYP_F":0,"ELEVTYP_T":0},"geometry":{"type":"LineString","coordinates":[[-74.1330574966255,39.706301745236],[-74.1341144506902,39.7066030297495],[-74.134149682807,39.7066130724619]]}},{"type":"Feature","id":62503,"properties":{"OBJECTID":62503,"PRIMENAME":"Union Avenue","ELEVTYP_F":0,"ELEVTYP_T":0},"geometry":{"type":"LineString","coordinates":[[-74.1459449361359,39.6873642561676],[-74.1462027116334,39.6874662119766]]}},{"type":"Feature","id":63014,"properties":{"OBJECTID":63014,"PRIMENAME":"Suffolk Place","ELEVTYP_F":0,"ELEVTYP_T":0},"geometry":{"type":"LineString","coordinates":[[-74.1427479929237,39.7015795040178],[-74.1421720614995,39.7024461874148]]}},{"type":"Feature","id":66799,"properties":{"OBJECTID":66799,"PRIMENAME":"Lange Avenue","ELEVTYP_F":0,"ELEVTYP_T":0},"geometry":{"type":"LineString","coordinates":[[-74.1421206096649,39.6990509412208],[-74.1422553437903,39.6992788210374],[-74.1424550889802,39.699595306259]]}},{"type":"Feature","id":72006,"properties":{"OBJECTID":72006,"PRIMENAME":"West 85th Street","ELEVTYP_F":0,"ELEVTYP_T":0},"geometry":{"type":"LineString","coordinates":[[-74.1341124197137,39.711258446946],[-74.1339860098829,39.7112227102365],[-74.1323118603241,39.7107493999884],[-74.1321601751792,39.710696727281],[-74.1321503106219,39.7106932911874]]}},{"type":"Feature","id":73769,"properties":{"OBJECTID":73769,"PRIMENAME":"Anchor Street","ELEVTYP_F":0,"ELEVTYP_T":0},"geometry":{"type":"LineString","coordinates":[[-74.1335212403893,39.7087436936677],[-74.1336885689358,39.708794701634],[-74.133740273749,39.7088177618617],[-74.1337697777304,39.7088378696369]]}},{"type":"Feature","id":74641,"properties":{"OBJECTID":74641,"PRIMENAME":"West Essex Avenue","ELEVTYP_F":0,"ELEVTYP_T":0},"geometry":{"type":"LineString","coordinates":[[-74.1388419981025,39.6991984913776],[-74.1383174088543,39.6989867181461]]}},{"type":"Feature","id":83606,"properties":{"OBJECTID":83606,"PRIMENAME":"East 73rd Street","ELEVTYP_F":0,"ELEVTYP_T":0},"geometry":{"type":"LineString","coordinates":[[-74.1361963577459,39.702549738144],[-74.1362499465221,39.7025650566995],[-74.137500406804,39.7029224551858]]}},{"type":"Feature","id":84637,"properties":{"OBJECTID":84637,"PRIMENAME":"Middlesex Avenue","ELEVTYP_F":0,"ELEVTYP_T":0},"geometry":{"type":"LineString","coordinates":[[-74.1388043620889,39.6982366800752],[-74.1376608896044,39.6978106117891]]}},{"type":"Feature","id":84741,"properties":{"OBJECTID":84741,"PRIMENAME":"West 81st Street","ELEVTYP_F":0,"ELEVTYP_T":0},"geometry":{"type":"LineString","coordinates":[[-74.1370511297547,39.709016252612],[-74.1364876977026,39.7088235404727]]}},{"type":"Feature","id":88230,"properties":{"OBJECTID":88230,"PRIMENAME":"East Union Avenue","ELEVTYP_F":0,"ELEVTYP_T":0},"geometry":{"type":"LineString","coordinates":[[-74.1455240505501,39.6879990326217],[-74.1445174316089,39.6876570489753]]}},{"type":"Feature","id":89146,"properties":{"OBJECTID":89146,"PRIMENAME":"Hudson Avenue","ELEVTYP_F":0,"ELEVTYP_T":0},"geometry":{"type":"LineString","coordinates":[[-74.142220401706,39.6930293419676],[-74.1410294591153,39.6925661780097]]}},{"type":"Feature","id":91056,"properties":{"OBJECTID":91056,"PRIMENAME":"North Long Beach Boulevard","ELEVTYP_F":0,"ELEVTYP_T":0},"geometry":{"type":"LineString","coordinates":[[-74.1373048697804,39.700507752899],[-74.1372026496595,39.7006641745692]]}},{"type":"Feature","id":92100,"properties":{"OBJECTID":92100,"PRIMENAME":"East 78th Street","ELEVTYP_F":0,"ELEVTYP_T":0},"geometry":{"type":"LineString","coordinates":[[-74.1348693554563,39.7060558047698],[-74.1345574955371,39.7059525261024]]}},{"type":"Feature","id":92887,"properties":{"OBJECTID":92887,"PRIMENAME":"West 83rd Street","ELEVTYP_F":0,"ELEVTYP_T":0},"geometry":{"type":"LineString","coordinates":[[-74.1341549073758,39.7096939613796],[-74.1349370792937,39.7099185495886]]}},{"type":"Feature","id":93378,"properties":{"OBJECTID":93378,"PRIMENAME":"West 84th Street","ELEVTYP_F":0,"ELEVTYP_T":0},"geometry":{"type":"LineString","coordinates":[[-74.1323863987287,39.7099799354732],[-74.1332004794278,39.7102114568817]]}},{"type":"Feature","id":93753,"properties":{"OBJECTID":93753,"PRIMENAME":"Camden Avenue","ELEVTYP_F":0,"ELEVTYP_T":0},"geometry":{"type":"LineString","coordinates":[[-74.139280444973,39.6975107111588],[-74.1398233466838,39.6977258588649]]}},{"type":"Feature","id":94322,"properties":{"OBJECTID":94322,"PRIMENAME":"James Street","ELEVTYP_F":0,"ELEVTYP_T":0},"geometry":{"type":"LineString","coordinates":[[-74.1465865418165,39.6862880771226],[-74.1473937159473,39.6866027498879],[-74.1487683317235,39.6871324039121],[-74.1488973242646,39.6871821049566]]}},{"type":"Feature","id":94828,"properties":{"OBJECTID":94828,"PRIMENAME":"North Long Beach Boulevard","ELEVTYP_F":0,"ELEVTYP_T":0},"geometry":{"type":"LineString","coordinates":[[-74.1319367163674,39.7113938422905],[-74.1320004091182,39.7112615463115],[-74.1320469294009,39.711163542438],[-74.1320919099823,39.7110607290556],[-74.1321295061334,39.710949271163],[-74.1321452005329,39.7108857899668],[-74.1321547447743,39.7108221793917],[-74.1321571470153,39.7107381198414],[-74.1321503106219,39.7106932911874]]}},{"type":"Feature","id":100308,"properties":{"OBJECTID":100308,"PRIMENAME":"East Cumberland Avenue","ELEVTYP_F":0,"ELEVTYP_T":0},"geometry":{"type":"LineString","coordinates":[[-74.1429208152833,39.6897549548868],[-74.1432126388385,39.6898731130802],[-74.1434749554704,39.6899797304517],[-74.1436891671231,39.6900633294629],[-74.1439736309107,39.6901757514701],[-74.144069007714,39.6902111868098]]}},{"type":"Feature","id":101707,"properties":{"OBJECTID":101707,"PRIMENAME":"East Sussex Avenue","ELEVTYP_F":0,"ELEVTYP_T":0},"geometry":{"type":"LineString","coordinates":[[-74.1368616438209,39.7012080076586],[-74.1367310205141,39.7011295262827],[-74.1357825917333,39.7007864334937]]}},{"type":"Feature","id":101917,"properties":{"OBJECTID":101917,"PRIMENAME":"West 80th Street","ELEVTYP_F":0,"ELEVTYP_T":0},"geometry":{"type":"LineString","coordinates":[[-74.1342321830426,39.7074276197276],[-74.1343924989305,39.7074726632338],[-74.1345062257282,39.7075046151642]]}},{"type":"Feature","id":104502,"properties":{"OBJECTID":104502,"PRIMENAME":"Unnamed Segment","ELEVTYP_F":0,"ELEVTYP_T":0},"geometry":{"type":"LineString","coordinates":[[-74.1468383403092,39.6857392397614],[-74.1467529227763,39.6857041252129],[-74.146744015862,39.6857004590649],[-74.1460936334015,39.6854327432007]]}},{"type":"Feature","id":105996,"properties":{"OBJECTID":105996,"PRIMENAME":"West 86th Street","ELEVTYP_F":0,"ELEVTYP_T":0},"geometry":{"type":"LineString","coordinates":[[-74.1319367163674,39.7113938422905],[-74.1323788836589,39.711523045364]]}},{"type":"Feature","id":106920,"properties":{"OBJECTID":106920,"PRIMENAME":"East 85th Street","ELEVTYP_F":0,"ELEVTYP_T":0},"geometry":{"type":"LineString","coordinates":[[-74.1321503106219,39.7106932911874],[-74.1317979987621,39.7105933367893],[-74.1309845776509,39.7103647999563],[-74.1308847587546,39.710338758101]]}},{"type":"Feature","id":110008,"properties":{"OBJECTID":110008,"PRIMENAME":"Long Beach Boulevard","ELEVTYP_F":0,"ELEVTYP_T":0},"geometry":{"type":"LineString","coordinates":[[-74.1315785625843,39.7121373946596],[-74.1314410910089,39.7120986863361]]}},{"type":"Feature","id":110107,"properties":{"OBJECTID":110107,"PRIMENAME":"North Long Beach Boulevard","ELEVTYP_F":0,"ELEVTYP_T":0},"geometry":{"type":"LineString","coordinates":[[-74.1368616438209,39.7012080076586],[-74.1368464719177,39.7012353521178],[-74.1367354899014,39.7014353802416],[-74.1365708708056,39.7017580103504],[-74.1365137550601,39.7018796224134]]}},{"type":"Feature","id":110763,"properties":{"OBJECTID":110763,"PRIMENAME":"Gloucester Avenue","ELEVTYP_F":0,"ELEVTYP_T":0},"geometry":{"type":"LineString","coordinates":[[-74.1431399177913,39.6916286134605],[-74.1419548637899,39.69115048754]]}},{"type":"Feature","id":112957,"properties":{"OBJECTID":112957,"PRIMENAME":"Unnamed Segment","ELEVTYP_F":0,"ELEVTYP_T":0},"geometry":{"type":"LineString","coordinates":[[-74.1453056801785,39.6883279711911],[-74.1443938740539,39.6879530525783]]}},{"type":"Feature","id":113948,"properties":{"OBJECTID":113948,"PRIMENAME":"Unnamed Segment","ELEVTYP_F":0,"ELEVTYP_T":0},"geometry":{"type":"LineString","coordinates":[[-74.145049755982,39.6887192772477],[-74.1441593107798,39.6883897778419]]}},{"type":"Feature","id":115461,"properties":{"OBJECTID":115461,"PRIMENAME":"North Long Beach Boulevard","ELEVTYP_F":0,"ELEVTYP_T":0},"geometry":{"type":"LineString","coordinates":[[-74.1399830335617,39.6964360572676],[-74.1396839945496,39.6968915904751],[-74.1395810112141,39.697053118358]]}},{"type":"Feature","id":117129,"properties":{"OBJECTID":117129,"PRIMENAME":"East 83rd Street","ELEVTYP_F":0,"ELEVTYP_T":0},"geometry":{"type":"LineString","coordinates":[[-74.1315661041691,39.7089395647192],[-74.1326948835931,39.7092747150294]]}},{"type":"Feature","id":119394,"properties":{"OBJECTID":119394,"PRIMENAME":"West 80th Street","ELEVTYP_F":0,"ELEVTYP_T":0},"geometry":{"type":"LineString","coordinates":[[-74.1345062257282,39.7075046151642],[-74.1352789706481,39.7077244064667],[-74.1356823002117,39.7078409833828]]}},{"type":"Feature","id":119734,"properties":{"OBJECTID":119734,"PRIMENAME":"East Essex Avenue","ELEVTYP_F":0,"ELEVTYP_T":0},"geometry":{"type":"LineString","coordinates":[[-74.1383174088543,39.6989867181461],[-74.1371558032214,39.6985265714803]]}},{"type":"Feature","id":120518,"properties":{"OBJECTID":120518,"PRIMENAME":"Long Beach Boulevard","ELEVTYP_F":0,"ELEVTYP_T":0},"geometry":{"type":"LineString","coordinates":[[-74.1293774314872,39.7166988775485],[-74.1295166867804,39.7164128724233],[-74.1299697823903,39.7154733812318],[-74.1303816854163,39.7146166990398],[-74.1308284780021,39.7136912088048]]}},{"type":"Feature","id":120917,"properties":{"OBJECTID":120917,"PRIMENAME":"North Long Beach Boulevard","ELEVTYP_F":0,"ELEVTYP_T":0},"geometry":{"type":"LineString","coordinates":[[-74.1463159417377,39.6867664211236],[-74.1463068131573,39.6867821853702],[-74.1461351508977,39.6870590690391],[-74.1459449361359,39.6873642561676]]}},{"type":"Feature","id":122150,"properties":{"OBJECTID":122150,"PRIMENAME":"Anchor Street","ELEVTYP_F":0,"ELEVTYP_T":0},"geometry":{"type":"LineString","coordinates":[[-74.133529175381,39.7095142877555],[-74.1332004794278,39.7102114568817]]}},{"type":"Feature","id":126764,"properties":{"OBJECTID":126764,"PRIMENAME":"West 80th Street","ELEVTYP_F":0,"ELEVTYP_T":0},"geometry":{"type":"LineString","coordinates":[[-74.1373763004347,39.7083321574045],[-74.1377301544854,39.7084356135558]]}},{"type":"Feature","id":127466,"properties":{"OBJECTID":127466,"PRIMENAME":"North Long Beach Boulevard","ELEVTYP_F":0,"ELEVTYP_T":0},"geometry":{"type":"LineString","coordinates":[[-74.1473049578641,39.6853009574661],[-74.1476128724636,39.6848361338131]]}},{"type":"Feature","id":127770,"properties":{"OBJECTID":127770,"PRIMENAME":"Lee Avenue","ELEVTYP_F":0,"ELEVTYP_T":0},"geometry":{"type":"LineString","coordinates":[[-74.1375037261053,39.7037146525961],[-74.1358594701992,39.7032412351261]]}},{"type":"Feature","id":131490,"properties":{"OBJECTID":131490,"PRIMENAME":"East 78th Street","ELEVTYP_F":0,"ELEVTYP_T":0},"geometry":{"type":"LineString","coordinates":[[-74.1353980575318,39.7062033069807],[-74.1348693554563,39.7060558047698]]}},{"type":"Feature","id":132940,"properties":{"OBJECTID":132940,"PRIMENAME":"Long Beach Boulevard","ELEVTYP_F":0,"ELEVTYP_T":0},"geometry":{"type":"LineString","coordinates":[[-74.1311097158661,39.7131086401135],[-74.1311343585701,39.7130575926573],[-74.1315785625843,39.7121373946596]]}},{"type":"Feature","id":133525,"properties":{"OBJECTID":133525,"PRIMENAME":"Long Beach Boulevard","ELEVTYP_F":0,"ELEVTYP_T":0},"geometry":{"type":"LineString","coordinates":[[-74.1466728744907,39.6861311867617],[-74.1467335142336,39.6860719582925],[-74.1467890727359,39.6860336352915],[-74.146829313794,39.6860027608703],[-74.1468752027065,39.6859580391749],[-74.1469075983642,39.6859116829977],[-74.1469548415274,39.6858384123268]]}},{"type":"Feature","id":140748,"properties":{"OBJECTID":140748,"PRIMENAME":"Anchor Street","ELEVTYP_F":0,"ELEVTYP_T":0},"geometry":{"type":"LineString","coordinates":[[-74.1337697777304,39.7088378696369],[-74.1337881609735,39.7088636530984],[-74.133806498801,39.7088980295886],[-74.1338099840365,39.7089380700024],[-74.1338023634552,39.7089809577965],[-74.1337910564465,39.7090152407884],[-74.1337760222206,39.7090552507143],[-74.1336988730655,39.7091988160174]]}},{"type":"Feature","id":141298,"properties":{"OBJECTID":141298,"PRIMENAME":"North Long Beach Boulevard","ELEVTYP_F":0,"ELEVTYP_T":0},"geometry":{"type":"LineString","coordinates":[[-74.1326948835931,39.7092747150294],[-74.1326616682744,39.7093444281379],[-74.1325569290807,39.7095557473158],[-74.1324856470507,39.7097185488061],[-74.1324180569642,39.7098956388531],[-74.1323863987287,39.7099799354732]]}},{"type":"Feature","id":142239,"properties":{"OBJECTID":142239,"PRIMENAME":"Fives Avenue","ELEVTYP_F":0,"ELEVTYP_T":0},"geometry":{"type":"LineString","coordinates":[[-74.1431057777971,39.7000246183435],[-74.1428857385174,39.7001072948648],[-74.142514765709,39.7002491669039],[-74.1420296461351,39.7004362334145],[-74.1419468245213,39.7004043706167]]}},{"type":"Feature","id":142798,"properties":{"OBJECTID":142798,"PRIMENAME":"West 77th Street","ELEVTYP_F":0,"ELEVTYP_T":0},"geometry":{"type":"LineString","coordinates":[[-74.1348835872918,39.7052776650369],[-74.1362486185834,39.7056883383109]]}},{"type":"Feature","id":144621,"properties":{"OBJECTID":144621,"PRIMENAME":"Unnamed Segment","ELEVTYP_F":0,"ELEVTYP_T":0},"geometry":{"type":"LineString","coordinates":[[-74.1311411018397,39.7127239091044],[-74.1301311096545,39.7124254261689]]}},{"type":"Feature","id":146181,"properties":{"OBJECTID":146181,"PRIMENAME":"North Long Beach Boulevard","ELEVTYP_F":0,"ELEVTYP_T":0},"geometry":{"type":"LineString","coordinates":[[-74.1417057917087,39.6938157975744],[-74.1416989502218,39.693826318896],[-74.1413407560842,39.6943685761532],[-74.1412058474505,39.6945749780128]]}},{"type":"Feature","id":146747,"properties":{"OBJECTID":146747,"PRIMENAME":"East 82nd Street","ELEVTYP_F":0,"ELEVTYP_T":0},"geometry":{"type":"LineString","coordinates":[[-74.1319139530698,39.7082857572541],[-74.1329690118042,39.7085768766288],[-74.1330217653807,39.7085914328882]]}},{"type":"Feature","id":148614,"properties":{"OBJECTID":148614,"PRIMENAME":"Cox Avenue","ELEVTYP_F":0,"ELEVTYP_T":0},"geometry":{"type":"LineString","coordinates":[[-74.1406512011655,39.6998977009299],[-74.1408214823609,39.6996232385053],[-74.1408603845936,39.69957149614],[-74.1408849481338,39.6995432929492],[-74.1409074257538,39.6995197789311],[-74.140938077183,39.6994963172067],[-74.1409727493198,39.699479128144],[-74.1410359368314,39.6994526098468],[-74.1410950652198,39.6994276706006],[-74.1413050028119,39.6993465858138],[-74.1419754988303,39.6991051020887],[-74.1421206096649,39.6990509412208]]}},{"type":"Feature","id":148816,"properties":{"OBJECTID":148816,"PRIMENAME":"Sunset Lane","ELEVTYP_F":0,"ELEVTYP_T":0},"geometry":{"type":"LineString","coordinates":[[-74.1371285192798,39.7079024811048],[-74.1369527413017,39.7082083567393]]}},{"type":"Feature","id":148963,"properties":{"OBJECTID":148963,"PRIMENAME":"East 76th Street","ELEVTYP_F":0,"ELEVTYP_T":0},"geometry":{"type":"LineString","coordinates":[[-74.1352014496558,39.7046119747002],[-74.1340420470425,39.7042657430693]]}},{"type":"Feature","id":149180,"properties":{"OBJECTID":149180,"PRIMENAME":"North Long Beach Boulevard","ELEVTYP_F":0,"ELEVTYP_T":0},"geometry":{"type":"LineString","coordinates":[[-74.1465865418165,39.6862880771226],[-74.1465832426216,39.6862939967575],[-74.1464973442362,39.686442459997],[-74.1464076625691,39.6866080151993],[-74.1463159417377,39.6867664211236]]}},{"type":"Feature","id":149375,"properties":{"OBJECTID":149375,"PRIMENAME":"North Long Beach Boulevard","ELEVTYP_F":0,"ELEVTYP_T":0},"geometry":{"type":"LineString","coordinates":[[-74.142220401706,39.6930293419676],[-74.1419862913069,39.6933838888688],[-74.1417057917087,39.6938157975744]]}},{"type":"Feature","id":161371,"properties":{"OBJECTID":161371,"PRIMENAME":"West 83rd Street","ELEVTYP_F":0,"ELEVTYP_T":0},"geometry":{"type":"LineString","coordinates":[[-74.1326948835931,39.7092747150294],[-74.133529175381,39.7095142877555]]}},{"type":"Feature","id":162599,"properties":{"OBJECTID":162599,"PRIMENAME":"West 82nd Street","ELEVTYP_F":0,"ELEVTYP_T":0},"geometry":{"type":"LineString","coordinates":[[-74.1358476657799,39.7094221131789],[-74.135707040861,39.7093837233728],[-74.1353707092716,39.7092919069757],[-74.1353373824288,39.7092889469281],[-74.135304015263,39.7093002906867]]}},{"type":"Feature","id":163323,"properties":{"OBJECTID":163323,"PRIMENAME":"North Long Beach Boulevard","ELEVTYP_F":0,"ELEVTYP_T":0},"geometry":{"type":"LineString","coordinates":[[-74.1388043620889,39.6982366800752],[-74.1387621925561,39.6983014797343],[-74.1384449298459,39.6987895763857],[-74.1383174088543,39.6989867181461]]}},{"type":"Feature","id":164108,"properties":{"OBJECTID":164108,"PRIMENAME":"North Long Beach Boulevard","ELEVTYP_F":0,"ELEVTYP_T":0},"geometry":{"type":"LineString","coordinates":[[-74.1317214938524,39.7118411495517],[-74.1319367163674,39.7113938422905]]}},{"type":"Feature","id":165610,"properties":{"OBJECTID":165610,"PRIMENAME":"Unnamed Segment","ELEVTYP_F":0,"ELEVTYP_T":0},"geometry":{"type":"LineString","coordinates":[[-74.1478012487114,39.6845517628043],[-74.1493159029624,39.685142656862]]}},{"type":"Feature","id":167035,"properties":{"OBJECTID":167035,"PRIMENAME":"Unnamed Segment","ELEVTYP_F":0,"ELEVTYP_T":0},"geometry":{"type":"LineString","coordinates":[[-74.1445081238618,39.6895458433379],[-74.1436961432464,39.6892365134059]]}},{"type":"Feature","id":167828,"properties":{"OBJECTID":167828,"PRIMENAME":"West 79th Street","ELEVTYP_F":0,"ELEVTYP_T":0},"geometry":{"type":"LineString","coordinates":[[-74.1345593307217,39.706729838035],[-74.1350058572454,39.7068569866725]]}},{"type":"Feature","id":167976,"properties":{"OBJECTID":167976,"PRIMENAME":"West 82nd Street","ELEVTYP_F":0,"ELEVTYP_T":0},"geometry":{"type":"LineString","coordinates":[[-74.135304015263,39.7093002906867],[-74.1352779316829,39.7093259342346],[-74.1352443386579,39.7093801620705],[-74.1351024117237,39.7096142368176]]}},{"type":"Feature","id":169327,"properties":{"OBJECTID":169327,"PRIMENAME":"Jamaica Lane","ELEVTYP_F":0,"ELEVTYP_T":0},"geometry":{"type":"LineString","coordinates":[[-74.1337748366788,39.7119313313383],[-74.1338274216361,39.7119467505162],[-74.1338384359054,39.711961089187],[-74.1338271796668,39.7119925169417],[-74.133673661624,39.712312322829]]}},{"type":"Feature","id":169394,"properties":{"OBJECTID":169394,"PRIMENAME":"West 76th Street","ELEVTYP_F":0,"ELEVTYP_T":0},"geometry":{"type":"LineString","coordinates":[[-74.1366889581476,39.7050344076663],[-74.1352014496558,39.7046119747002]]}},{"type":"Feature","id":170376,"properties":{"OBJECTID":170376,"PRIMENAME":"Anchor Street","ELEVTYP_F":0,"ELEVTYP_T":0},"geometry":{"type":"LineString","coordinates":[[-74.1336988730655,39.7091988160174],[-74.133529175381,39.7095142877555]]}},{"type":"Feature","id":171018,"properties":{"OBJECTID":171018,"PRIMENAME":"Cedars Avenue","ELEVTYP_F":0,"ELEVTYP_T":0},"geometry":{"type":"LineString","coordinates":[[-74.145398794494,39.6969481908165],[-74.1454048094196,39.696947390399],[-74.1454374327219,39.6969340921995],[-74.145461399869,39.6969106917261],[-74.1454767401745,39.6968855895067],[-74.1454878450524,39.6968336787199],[-74.1455634949065,39.6964685097103],[-74.1455658767702,39.6964266211004],[-74.145561737743,39.696388033667],[-74.1455424910179,39.6963293313133],[-74.1455145815679,39.6962689000856],[-74.1454759366615,39.6961950373552],[-74.1454457740655,39.6961513469547],[-74.1454068787711,39.6961193802189],[-74.1453549855011,39.696085699271],[-74.1452749159539,39.6960435579174],[-74.1448678805032,39.6958696770221],[-74.1448115654172,39.6958527570545],[-74.144763862979,39.6958475597023],[-74.1447139400251,39.6958524583968],[-74.1446661504159,39.695864035485],[-74.1446313427317,39.695880676691],[-74.1445942538797,39.6959124111494],[-74.1445288995118,39.6959742316377],[-74.1440566710983,39.6965296286318]]}},{"type":"Feature","id":172551,"properties":{"OBJECTID":172551,"PRIMENAME":"Cedars Avenue","ELEVTYP_F":0,"ELEVTYP_T":0},"geometry":{"type":"LineString","coordinates":[[-74.1404997206752,39.6979934178554],[-74.141107775184,39.6977698382798],[-74.142361436022,39.6973161133115],[-74.1429808972043,39.6970835262534],[-74.1430773895447,39.6970351992818],[-74.1431257730311,39.6969981738698],[-74.1431704413291,39.6969439776552],[-74.1432152353556,39.6968725954207],[-74.1433010292332,39.6967413218721],[-74.1433757716258,39.6966099863928],[-74.1434316231361,39.6965443758332],[-74.1434762534551,39.6965044833556],[-74.1435208396571,39.6964731568973],[-74.143565352385,39.6964561071499],[-74.1436135316394,39.6964448334653],[-74.1436801681072,39.6964450379622]]}},{"type":"Feature","id":172900,"properties":{"OBJECTID":172900,"PRIMENAME":"Long Beach Boulevard","ELEVTYP_F":0,"ELEVTYP_T":0},"geometry":{"type":"LineString","coordinates":[[-74.1455240505501,39.6879990326217],[-74.1454798165117,39.6880653310104]]}},{"type":"Feature","id":174431,"properties":{"OBJECTID":174431,"PRIMENAME":"North Long Beach Boulevard","ELEVTYP_F":0,"ELEVTYP_T":0},"geometry":{"type":"LineString","coordinates":[[-74.1391706872008,39.6976740794714],[-74.1388043620889,39.6982366800752]]}},{"type":"Feature","id":175747,"properties":{"OBJECTID":175747,"PRIMENAME":"West 87th Street","ELEVTYP_F":0,"ELEVTYP_T":0},"geometry":{"type":"LineString","coordinates":[[-74.1332845405759,39.7126562750671],[-74.1315785625843,39.7121373946596]]}},{"type":"Feature","id":178744,"properties":{"OBJECTID":178744,"PRIMENAME":"West 86th Street","ELEVTYP_F":0,"ELEVTYP_T":0},"geometry":{"type":"LineString","coordinates":[[-74.1331101798548,39.7117367072446],[-74.133354159007,39.7118079824684],[-74.1337748366788,39.7119313313383]]}},{"type":"Feature","id":179111,"properties":{"OBJECTID":179111,"PRIMENAME":"East 84th Street","ELEVTYP_F":0,"ELEVTYP_T":0},"geometry":{"type":"LineString","coordinates":[[-74.1312254349263,39.709639161968],[-74.1323863987287,39.7099799354732]]}},{"type":"Feature","id":179142,"properties":{"OBJECTID":179142,"PRIMENAME":"Unnamed Segment","ELEVTYP_F":0,"ELEVTYP_T":0},"geometry":{"type":"LineString","coordinates":[[-74.1308284780021,39.7136912088048],[-74.1325893476038,39.7142095496519]]}},{"type":"Feature","id":180906,"properties":{"OBJECTID":180906,"PRIMENAME":"Unnamed Segment","ELEVTYP_F":0,"ELEVTYP_T":0},"geometry":{"type":"LineString","coordinates":[[-74.1303517114008,39.7143609893568],[-74.1295328748922,39.7141373469074]]}},{"type":"Feature","id":181405,"properties":{"OBJECTID":181405,"PRIMENAME":"Bay Terrace","ELEVTYP_F":0,"ELEVTYP_T":0},"geometry":{"type":"LineString","coordinates":[[-74.1350697910639,39.7107687928387],[-74.1350656793466,39.7107702499424],[-74.1350386746978,39.710774914727],[-74.1350044374991,39.7107757132617],[-74.1349762745429,39.7107709029853],[-74.1347475805735,39.7107134337252]]}},{"type":"Feature","id":185555,"properties":{"OBJECTID":185555,"PRIMENAME":"West Bergen Avenue","ELEVTYP_F":0,"ELEVTYP_T":0},"geometry":{"type":"LineString","coordinates":[[-74.1462027116334,39.6874662119766],[-74.1470101327208,39.6877855576305]]}},{"type":"Feature","id":185638,"properties":{"OBJECTID":185638,"PRIMENAME":"Cedars Avenue","ELEVTYP_F":0,"ELEVTYP_T":0},"geometry":{"type":"LineString","coordinates":[[-74.1440566710983,39.6965296286318],[-74.1441423848687,39.6965522939971],[-74.1445120727401,39.6966563834487],[-74.1448926733449,39.6967948229286],[-74.1452141697304,39.6969130388109],[-74.1453223579834,39.6969471385867],[-74.1453678937636,39.6969523020699],[-74.145398794494,39.6969481908165]]}},{"type":"Feature","id":186603,"properties":{"OBJECTID":186603,"PRIMENAME":"North Long Beach Boulevard","ELEVTYP_F":0,"ELEVTYP_T":0},"geometry":{"type":"LineString","coordinates":[[-74.1358594701992,39.7032412351261],[-74.1355250797176,39.7039364724977]]}},{"type":"Feature","id":188452,"properties":{"OBJECTID":188452,"PRIMENAME":"Lange Avenue","ELEVTYP_F":0,"ELEVTYP_T":0},"geometry":{"type":"LineString","coordinates":[[-74.1446573495521,39.7009345684368],[-74.1436077200347,39.7005322105875],[-74.1435326403571,39.7005005717485],[-74.1434738029389,39.7004689557099],[-74.1434210790905,39.7004373845374],[-74.1433744652849,39.7003995187247],[-74.1433279269354,39.7003538003554],[-74.1432874741933,39.7003065360534],[-74.143164394104,39.7001128741786],[-74.1431057777971,39.7000246183435]]}},{"type":"Feature","id":189792,"properties":{"OBJECTID":189792,"PRIMENAME":"West Essex Avenue","ELEVTYP_F":0,"ELEVTYP_T":0},"geometry":{"type":"LineString","coordinates":[[-74.1413008134335,39.7001558378561],[-74.1406512011655,39.6998977009299]]}},{"type":"Feature","id":190757,"properties":{"OBJECTID":190757,"PRIMENAME":"Mallard Lane","ELEVTYP_F":0,"ELEVTYP_T":0},"geometry":{"type":"LineString","coordinates":[[-74.1351024117237,39.7096142368176],[-74.1349370792937,39.7099185495886]]}},{"type":"Feature","id":191166,"properties":{"OBJECTID":191166,"PRIMENAME":"North Long Beach Boulevard","ELEVTYP_F":0,"ELEVTYP_T":0},"geometry":{"type":"LineString","coordinates":[[-74.139280444973,39.6975107111588],[-74.1392063098186,39.6976193675746],[-74.1391706872008,39.6976740794714]]}},{"type":"Feature","id":194304,"properties":{"OBJECTID":194304,"PRIMENAME":"Harvest Avenue","ELEVTYP_F":0,"ELEVTYP_T":0},"geometry":{"type":"LineString","coordinates":[[-74.1408981426482,39.698218189866],[-74.1408905212699,39.6982553404079],[-74.1408717972302,39.6982953390238],[-74.1404730591414,39.6988988847382]]}},{"type":"Feature","id":194788,"properties":{"OBJECTID":194788,"PRIMENAME":"Compass Street","ELEVTYP_F":0,"ELEVTYP_T":0},"geometry":{"type":"LineString","coordinates":[[-74.1345593307217,39.706729838035],[-74.1344910465054,39.706878264365],[-74.1343772359199,39.7071197841796]]}},{"type":"Feature","id":200484,"properties":{"OBJECTID":200484,"PRIMENAME":"North Long Beach Boulevard","ELEVTYP_F":0,"ELEVTYP_T":0},"geometry":{"type":"LineString","coordinates":[[-74.1459449361359,39.6873642561676],[-74.1459074227138,39.6874244329651],[-74.1455240505501,39.6879990326217]]}},{"type":"Feature","id":200923,"properties":{"OBJECTID":200923,"PRIMENAME":"Bay Terrace","ELEVTYP_F":0,"ELEVTYP_T":0},"geometry":{"type":"LineString","coordinates":[[-74.1373763004347,39.7083321574045],[-74.1372890374982,39.7085285992167],[-74.1370985903757,39.7089189720067],[-74.1370511297547,39.709016252612]]}},{"type":"Feature","id":201800,"properties":{"OBJECTID":201800,"PRIMENAME":"Holly Avenue","ELEVTYP_F":0,"ELEVTYP_T":0},"geometry":{"type":"LineString","coordinates":[[-74.1388419981025,39.6991984913776],[-74.1398233466838,39.6977258588649]]}},{"type":"Feature","id":209355,"properties":{"OBJECTID":209355,"PRIMENAME":"West Salem Avenue","ELEVTYP_F":0,"ELEVTYP_T":0},"geometry":{"type":"LineString","coordinates":[[-74.143184554154,39.6925465180327],[-74.1427666028313,39.6923856093654],[-74.1426683624588,39.6923467881253]]}},{"type":"Feature","id":210616,"properties":{"OBJECTID":210616,"PRIMENAME":"North Long Beach Boulevard","ELEVTYP_F":0,"ELEVTYP_T":0},"geometry":{"type":"LineString","coordinates":[[-74.1445081238618,39.6895458433379],[-74.144069007714,39.6902111868098]]}},{"type":"Feature","id":212447,"properties":{"OBJECTID":212447,"PRIMENAME":"72nd Street","ELEVTYP_F":0,"ELEVTYP_T":0},"geometry":{"type":"LineString","coordinates":[[-74.1364279774237,39.7020623463802],[-74.1353462772158,39.7017351156168]]}},{"type":"Feature","id":212810,"properties":{"OBJECTID":212810,"PRIMENAME":"North Long Beach Boulevard","ELEVTYP_F":0,"ELEVTYP_T":0},"geometry":{"type":"LineString","coordinates":[[-74.1352014496558,39.7046119747002],[-74.1349723888689,39.7050933647039],[-74.1348835872918,39.7052776650369]]}},{"type":"Feature","id":215094,"properties":{"OBJECTID":215094,"PRIMENAME":"North Long Beach Boulevard","ELEVTYP_F":0,"ELEVTYP_T":0},"geometry":{"type":"LineString","coordinates":[[-74.1355250797176,39.7039364724977],[-74.1353243343571,39.7043537617884],[-74.1352014496558,39.7046119747002]]}},{"type":"Feature","id":215718,"properties":{"OBJECTID":215718,"PRIMENAME":"West Salem Avenue","ELEVTYP_F":0,"ELEVTYP_T":0},"geometry":{"type":"LineString","coordinates":[[-74.1438823503069,39.6928151664018],[-74.143184554154,39.6925465180327]]}},{"type":"Feature","id":218569,"properties":{"OBJECTID":218569,"PRIMENAME":"West Essex Avenue","ELEVTYP_F":0,"ELEVTYP_T":0},"geometry":{"type":"LineString","coordinates":[[-74.1399837155145,39.6996395878197],[-74.1393022096217,39.6993762930218],[-74.1388419981025,39.6991984913776]]}},{"type":"Feature","id":222561,"properties":{"OBJECTID":222561,"PRIMENAME":"Unnamed Segment","ELEVTYP_F":0,"ELEVTYP_T":0},"geometry":{"type":"LineString","coordinates":[[-74.1471476279364,39.6852656292806],[-74.1463166631358,39.6849466451443]]}},{"type":"Feature","id":222700,"properties":{"OBJECTID":222700,"PRIMENAME":"North Long Beach Boulevard","ELEVTYP_F":0,"ELEVTYP_T":0},"geometry":{"type":"LineString","coordinates":[[-74.1403154530923,39.6959267102063],[-74.1401243032933,39.6962208564347],[-74.1399830335617,39.6964360572676]]}},{"type":"Feature","id":223859,"properties":{"OBJECTID":223859,"PRIMENAME":"Union Avenue","ELEVTYP_F":0,"ELEVTYP_T":0},"geometry":{"type":"LineString","coordinates":[[-74.1454798165117,39.6880653310104],[-74.1459971179501,39.6882657112697]]}},{"type":"Feature","id":224254,"properties":{"OBJECTID":224254,"PRIMENAME":"Anchor Street","ELEVTYP_F":0,"ELEVTYP_T":0},"geometry":{"type":"LineString","coordinates":[[-74.1342403492401,39.708075747511],[-74.1345062257282,39.7075046151642]]}},{"type":"Feature","id":226105,"properties":{"OBJECTID":226105,"PRIMENAME":"Lange Avenue","ELEVTYP_F":0,"ELEVTYP_T":0},"geometry":{"type":"LineString","coordinates":[[-74.1427280585325,39.6995175430879],[-74.1426954863033,39.6995206000063],[-74.1426649445187,39.699529923402],[-74.1424550889802,39.699595306259]]}},{"type":"Feature","id":227455,"properties":{"OBJECTID":227455,"PRIMENAME":"West 80th Street","ELEVTYP_F":0,"ELEVTYP_T":0},"geometry":{"type":"LineString","coordinates":[[-74.1356823002117,39.7078409833828],[-74.1369094061569,39.708195674656],[-74.1369527413017,39.7082083567393]]}},{"type":"Feature","id":227474,"properties":{"OBJECTID":227474,"PRIMENAME":"North Long Beach Boulevard","ELEVTYP_F":0,"ELEVTYP_T":0},"geometry":{"type":"LineString","coordinates":[[-74.1449350220114,39.6888969634995],[-74.1448740557316,39.6889913789056],[-74.1447121074448,39.6892367681239]]}},{"type":"Feature","id":231489,"properties":{"OBJECTID":231489,"PRIMENAME":"West 86th Street","ELEVTYP_F":0,"ELEVTYP_T":0},"geometry":{"type":"LineString","coordinates":[[-74.1323788836589,39.711523045364],[-74.1331101798548,39.7117367072446]]}},{"type":"Feature","id":232187,"properties":{"OBJECTID":232187,"PRIMENAME":"Norfolk Place","ELEVTYP_F":0,"ELEVTYP_T":0},"geometry":{"type":"LineString","coordinates":[[-74.1416630271858,39.7011650488989],[-74.1415259636347,39.7013803130394],[-74.1411403125538,39.7019554093825],[-74.1410819471324,39.7020424462247]]}},{"type":"Feature","id":232400,"properties":{"OBJECTID":232400,"PRIMENAME":"East 70th Street","ELEVTYP_F":0,"ELEVTYP_T":0},"geometry":{"type":"LineString","coordinates":[[-74.1372026496595,39.7006641745692],[-74.1363995350935,39.7003393675408]]}},{"type":"Feature","id":232461,"properties":{"OBJECTID":232461,"PRIMENAME":"Cox Avenue","ELEVTYP_F":0,"ELEVTYP_T":0},"geometry":{"type":"LineString","coordinates":[[-74.1428926385342,39.6987684997293],[-74.1429394508526,39.698760790914],[-74.1429719982415,39.6987624835247],[-74.1430126673828,39.6987673032919],[-74.1430593581983,39.6987831784918],[-74.1431101037339,39.6988053263742],[-74.1431466050888,39.6988258379273],[-74.1431871619223,39.6988527032376],[-74.1432235834905,39.6988889461863],[-74.1439333781764,39.6997051117281],[-74.1440516133696,39.6998395595205],[-74.1442589946858,39.7000753800238]]}},{"type":"Feature","id":232952,"properties":{"OBJECTID":232952,"PRIMENAME":"Lange Avenue","ELEVTYP_F":0,"ELEVTYP_T":0},"geometry":{"type":"LineString","coordinates":[[-74.1431057777971,39.7000246183435],[-74.1430473030479,39.6999365277507],[-74.1428274115777,39.6995838505622],[-74.1428051470872,39.6995523457718],[-74.1427808715666,39.6995318447026],[-74.1427544846354,39.6995207815349],[-74.1427280585325,39.6995175430879]]}},{"type":"Feature","id":234170,"properties":{"OBJECTID":234170,"PRIMENAME":"Maiden Lane","ELEVTYP_F":0,"ELEVTYP_T":0},"geometry":{"type":"LineString","coordinates":[[-74.1371285192798,39.7079024811048],[-74.1372573073676,39.7079397540166],[-74.1375656420107,39.7080289860957]]}},{"type":"Feature","id":245052,"properties":{"OBJECTID":245052,"PRIMENAME":"East Lee Avenue","ELEVTYP_F":0,"ELEVTYP_T":0},"geometry":{"type":"LineString","coordinates":[[-74.1358594701992,39.7032412351261],[-74.1352042222563,39.703052539668],[-74.1346534059663,39.7028906350697]]}},{"type":"Feature","id":245108,"properties":{"OBJECTID":245108,"PRIMENAME":"West 79th Street","ELEVTYP_F":0,"ELEVTYP_T":0},"geometry":{"type":"LineString","coordinates":[[-74.134149682807,39.7066130724619],[-74.1345593307217,39.706729838035]]}},{"type":"Feature","id":249701,"properties":{"OBJECTID":249701,"PRIMENAME":"Commonwealth Boulevard","ELEVTYP_F":0,"ELEVTYP_T":0},"geometry":{"type":"LineString","coordinates":[[-74.1366889581476,39.7050344076663],[-74.1366828336141,39.7050470602921],[-74.1364663019913,39.7054943728132]]}},{"type":"Feature","id":250440,"properties":{"OBJECTID":250440,"PRIMENAME":"Compass Street","ELEVTYP_F":0,"ELEVTYP_T":0},"geometry":{"type":"LineString","coordinates":[[-74.1348693554563,39.7060558047698],[-74.1348209054645,39.706161141332],[-74.1345593307217,39.706729838035]]}},{"type":"Feature","id":250835,"properties":{"OBJECTID":250835,"PRIMENAME":"Buckingham Avenue","ELEVTYP_F":0,"ELEVTYP_T":0},"geometry":{"type":"LineString","coordinates":[[-74.1427479929237,39.7015795040178],[-74.1436556028602,39.7019474168784],[-74.1436999130887,39.7019704229797],[-74.1437294021135,39.7019934385358],[-74.1437441056108,39.7020163258523],[-74.143751366177,39.7020421015665],[-74.1437475080444,39.7020735251195]]}},{"type":"Feature","id":253718,"properties":{"OBJECTID":253718,"PRIMENAME":"Maiden Lane","ELEVTYP_F":0,"ELEVTYP_T":0},"geometry":{"type":"LineString","coordinates":[[-74.1343772359199,39.7071197841796],[-74.1357984103455,39.7075201240569],[-74.1358212673294,39.7075266478381]]}},{"type":"Feature","id":253834,"properties":{"OBJECTID":253834,"PRIMENAME":"North Long Beach Boulevard","ELEVTYP_F":0,"ELEVTYP_T":0},"geometry":{"type":"LineString","coordinates":[[-74.1345574955371,39.7059525261024],[-74.1345044563384,39.7060613835437],[-74.1344595126213,39.7061585152275],[-74.1343997672823,39.7062583728036],[-74.1343474656703,39.706335438629],[-74.1342094851207,39.7065294954008],[-74.134149682807,39.7066130724619]]}},{"type":"Feature","id":256465,"properties":{"OBJECTID":256465,"PRIMENAME":"Unnamed Segment","ELEVTYP_F":0,"ELEVTYP_T":0},"geometry":{"type":"LineString","coordinates":[[-74.1391706872008,39.6976740794714],[-74.1381489845933,39.6973181955109]]}},{"type":"Feature","id":258242,"properties":{"OBJECTID":258242,"PRIMENAME":"Long Beach Boulevard","ELEVTYP_F":0,"ELEVTYP_T":0},"geometry":{"type":"LineString","coordinates":[[-74.1315785625843,39.7121373946596],[-74.1315814022914,39.7121315073508],[-74.1317142163749,39.7118562744076],[-74.1317214938524,39.7118411495517]]}},{"type":"Feature","id":258567,"properties":{"OBJECTID":258567,"PRIMENAME":"North Long Beach Boulevard","ELEVTYP_F":0,"ELEVTYP_T":0},"geometry":{"type":"LineString","coordinates":[[-74.1361963577459,39.702549738144],[-74.1359644029588,39.70302304958],[-74.1358594701992,39.7032412351261]]}},{"type":"Feature","id":262097,"properties":{"OBJECTID":262097,"PRIMENAME":"Unnamed Segment","ELEVTYP_F":0,"ELEVTYP_T":0},"geometry":{"type":"LineString","coordinates":[[-74.1399830335617,39.6964360572676],[-74.1389572477565,39.6960414316719]]}},{"type":"Feature","id":262973,"properties":{"OBJECTID":262973,"PRIMENAME":"Unnamed Segment","ELEVTYP_F":0,"ELEVTYP_T":0},"geometry":{"type":"LineString","coordinates":[[-74.1463159417377,39.6867664211236],[-74.1454494317055,39.6864250486913]]}},{"type":"Feature","id":263017,"properties":{"OBJECTID":263017,"PRIMENAME":"West 80th Street","ELEVTYP_F":0,"ELEVTYP_T":0},"geometry":{"type":"LineString","coordinates":[[-74.1336749444181,39.7072710714256],[-74.1342321830426,39.7074276197276]]}},{"type":"Feature","id":267233,"properties":{"OBJECTID":267233,"PRIMENAME":"East Cape May Avenue","ELEVTYP_F":0,"ELEVTYP_T":0},"geometry":{"type":"LineString","coordinates":[[-74.1435990064041,39.6909279425226],[-74.1424912792163,39.6905000818652]]}},{"type":"Feature","id":267663,"properties":{"OBJECTID":267663,"PRIMENAME":"Kent Place","ELEVTYP_F":0,"ELEVTYP_T":0},"geometry":{"type":"LineString","coordinates":[[-74.1437475080444,39.7020735251195],[-74.143736236464,39.7021020993626],[-74.1437100759563,39.7021506417578],[-74.143348061525,39.7027199098615],[-74.1432472190218,39.7028784803285]]}},{"type":"Feature","id":269393,"properties":{"OBJECTID":269393,"PRIMENAME":"Tranquility Lane","ELEVTYP_F":0,"ELEVTYP_T":0},"geometry":{"type":"LineString","coordinates":[[-74.1465865418165,39.6862880771226],[-74.1457956414947,39.6860022347334]]}},{"type":"Feature","id":269698,"properties":{"OBJECTID":269698,"PRIMENAME":"East Burlington Avenue","ELEVTYP_F":0,"ELEVTYP_T":0},"geometry":{"type":"LineString","coordinates":[[-74.1400217369368,39.6941474074283],[-74.1409688108529,39.6945115105247],[-74.1411301921481,39.6945598088171],[-74.1411604528631,39.6945658770374],[-74.1412058474505,39.6945749780128]]}},{"type":"Feature","id":270674,"properties":{"OBJECTID":270674,"PRIMENAME":"Holly Avenue","ELEVTYP_F":0,"ELEVTYP_T":0},"geometry":{"type":"LineString","coordinates":[[-74.1446033248796,39.6904081115287],[-74.1442062789024,39.6910086829613],[-74.1437921193357,39.6916394568281],[-74.143184554154,39.6925465180327]]}},{"type":"Feature","id":271072,"properties":{"OBJECTID":271072,"PRIMENAME":"East 80th Street","ELEVTYP_F":0,"ELEVTYP_T":0},"geometry":{"type":"LineString","coordinates":[[-74.1336749444181,39.7072710714256],[-74.1331901237474,39.7071258140895],[-74.1325579478753,39.7069379179852]]}},{"type":"Feature","id":272608,"properties":{"OBJECTID":272608,"PRIMENAME":"North Long Beach Boulevard","ELEVTYP_F":0,"ELEVTYP_T":0},"geometry":{"type":"LineString","coordinates":[[-74.134149682807,39.7066130724619],[-74.1341013046705,39.7066806791214],[-74.1339670285992,39.7068661811101],[-74.1337507751478,39.7071543524557],[-74.133679856891,39.7072628234222],[-74.1336749444181,39.7072710714256]]}},{"type":"Feature","id":273607,"properties":{"OBJECTID":273607,"PRIMENAME":"North Long Beach Boulevard","ELEVTYP_F":0,"ELEVTYP_T":0},"geometry":{"type":"LineString","coordinates":[[-74.1426683624588,39.6923467881253],[-74.1426094415642,39.6924363300838],[-74.1423482357124,39.69283593028],[-74.142220401706,39.6930293419676]]}},{"type":"Feature","id":273878,"properties":{"OBJECTID":273878,"PRIMENAME":"North Long Beach Boulevard","ELEVTYP_F":0,"ELEVTYP_T":0},"geometry":{"type":"LineString","coordinates":[[-74.1453056801785,39.6883279711911],[-74.1451763423799,39.6885232327654],[-74.145049755982,39.6887192772477]]}},{"type":"Feature","id":276092,"properties":{"OBJECTID":276092,"PRIMENAME":"East Salem Avenue","ELEVTYP_F":0,"ELEVTYP_T":0},"geometry":{"type":"LineString","coordinates":[[-74.1426683624588,39.6923467881253],[-74.1422272068379,39.6921722983888],[-74.1414439898021,39.6918696061369]]}},{"type":"Feature","id":276365,"properties":{"OBJECTID":276365,"PRIMENAME":"North Long Beach Boulevard","ELEVTYP_F":0,"ELEVTYP_T":0},"geometry":{"type":"LineString","coordinates":[[-74.1323863987287,39.7099799354732],[-74.1323579862828,39.7100556212644],[-74.1322902787908,39.7102612917099],[-74.1322337283314,39.710441271976],[-74.1321503106219,39.7106932911874]]}},{"type":"Feature","id":276740,"properties":{"OBJECTID":276740,"PRIMENAME":"Meadowview Lane","ELEVTYP_F":0,"ELEVTYP_T":0},"geometry":{"type":"LineString","coordinates":[[-74.1356823002117,39.7078409833828],[-74.1358212673294,39.7075266478381]]}},{"type":"Feature","id":278201,"properties":{"OBJECTID":278201,"PRIMENAME":"Harvest Avenue","ELEVTYP_F":0,"ELEVTYP_T":0},"geometry":{"type":"LineString","coordinates":[[-74.1404997206752,39.6979934178554],[-74.140857842214,39.698135123812],[-74.1408799510369,39.6981552339638],[-74.1408945880646,39.6981838601511],[-74.1408981426482,39.698218189866]]}},{"type":"Feature","id":279442,"properties":{"OBJECTID":279442,"PRIMENAME":"North Long Beach Boulevard","ELEVTYP_F":0,"ELEVTYP_T":0},"geometry":{"type":"LineString","coordinates":[[-74.1395810112141,39.697053118358],[-74.1395384059517,39.6971199211394],[-74.1393853802067,39.6973568496307],[-74.139280444973,39.6975107111588]]}},{"type":"Feature","id":279688,"properties":{"OBJECTID":279688,"PRIMENAME":"East Cape May Avenue","ELEVTYP_F":0,"ELEVTYP_T":0},"geometry":{"type":"LineString","coordinates":[[-74.1446033248796,39.6904081115287],[-74.1452520805129,39.6906458237432]]}},{"type":"Feature","id":280322,"properties":{"OBJECTID":280322,"PRIMENAME":"West 80th Street","ELEVTYP_F":0,"ELEVTYP_T":0},"geometry":{"type":"LineString","coordinates":[[-74.1343772359199,39.7071197841796],[-74.1342321830426,39.7074276197276]]}},{"type":"Feature","id":281027,"properties":{"OBJECTID":281027,"PRIMENAME":"Unnamed Segment","ELEVTYP_F":0,"ELEVTYP_T":0},"geometry":{"type":"LineString","coordinates":[[-74.1306665357009,39.7137080971973],[-74.1294014304809,39.7133486493911]]}},{"type":"Feature","id":281489,"properties":{"OBJECTID":281489,"PRIMENAME":"West 84th Street","ELEVTYP_F":0,"ELEVTYP_T":0},"geometry":{"type":"LineString","coordinates":[[-74.1332004794278,39.7102114568817],[-74.1342386383809,39.7105066610472]]}},{"type":"Feature","id":282581,"properties":{"OBJECTID":282581,"PRIMENAME":"Unnamed Segment","ELEVTYP_F":0,"ELEVTYP_T":0},"geometry":{"type":"LineString","coordinates":[[-74.1311097158661,39.7131086401135],[-74.1329778236608,39.7136685260399]]}},{"type":"Feature","id":284354,"properties":{"OBJECTID":284354,"PRIMENAME":"North Long Beach Boulevard","ELEVTYP_F":0,"ELEVTYP_T":0},"geometry":{"type":"LineString","coordinates":[[-74.1365137550601,39.7018796224134],[-74.1364279774237,39.7020623463802]]}},{"type":"Feature","id":285147,"properties":{"OBJECTID":285147,"PRIMENAME":"Olsen Avenue","ELEVTYP_F":0,"ELEVTYP_T":0},"geometry":{"type":"LineString","coordinates":[[-74.1424550889802,39.699595306259],[-74.1417987982356,39.6998384020602],[-74.1416214810319,39.6999069868714],[-74.1415420177114,39.6999397425021],[-74.1415031991972,39.6999616145606],[-74.1414624100239,39.6999866367616],[-74.1414236056151,39.7000195178472],[-74.1413888170555,39.7000524113219],[-74.1413008134335,39.7001558378561]]}},{"type":"Feature","id":286052,"properties":{"OBJECTID":286052,"PRIMENAME":"North Long Beach Boulevard","ELEVTYP_F":0,"ELEVTYP_T":0},"geometry":{"type":"LineString","coordinates":[[-74.1469548415274,39.6858384123268],[-74.1469944279734,39.6857769362784]]}},{"type":"Feature","id":286610,"properties":{"OBJECTID":286610,"PRIMENAME":"Buckingham Avenue","ELEVTYP_F":0,"ELEVTYP_T":0},"geometry":{"type":"LineString","coordinates":[[-74.1416630271858,39.7011650488989],[-74.1425324149897,39.701492109712],[-74.1427479929237,39.7015795040178]]}},{"type":"Feature","id":288932,"properties":{"OBJECTID":288932,"PRIMENAME":"North Long Beach Boulevard","ELEVTYP_F":0,"ELEVTYP_T":0},"geometry":{"type":"LineString","coordinates":[[-74.1435990064041,39.6909279425226],[-74.1435570624471,39.6909921132802],[-74.1431399177913,39.6916286134605]]}},{"type":"Feature","id":291738,"properties":{"OBJECTID":291738,"PRIMENAME":"Unnamed Segment","ELEVTYP_F":0,"ELEVTYP_T":0},"geometry":{"type":"LineString","coordinates":[[-74.1403154530923,39.6959267102063],[-74.139099594238,39.6954374617911]]}},{"type":"Feature","id":291788,"properties":{"OBJECTID":291788,"PRIMENAME":"East 72nd Street","ELEVTYP_F":0,"ELEVTYP_T":0},"geometry":{"type":"LineString","coordinates":[[-74.1365137550601,39.7018796224134],[-74.1357594740639,39.7016614896477]]}},{"type":"Feature","id":295015,"properties":{"OBJECTID":295015,"PRIMENAME":"East 87th Street","ELEVTYP_F":0,"ELEVTYP_T":0},"geometry":{"type":"LineString","coordinates":[[-74.1314410910089,39.7120986863361],[-74.1303115765556,39.7117808178325]]}},{"type":"Feature","id":298721,"properties":{"OBJECTID":298721,"PRIMENAME":"Cox Avenue","ELEVTYP_F":0,"ELEVTYP_T":0},"geometry":{"type":"LineString","coordinates":[[-74.1421206096649,39.6990509412208],[-74.14283558515,39.6987840559194],[-74.1428926385342,39.6987684997293]]}},{"type":"Feature","id":299441,"properties":{"OBJECTID":299441,"PRIMENAME":"Sandpiper Lane","ELEVTYP_F":0,"ELEVTYP_T":0},"geometry":{"type":"LineString","coordinates":[[-74.1331101798548,39.7117367072446],[-74.1329192754546,39.7121211868626]]}},{"type":"Feature","id":301901,"properties":{"OBJECTID":301901,"PRIMENAME":"West 81st Street","ELEVTYP_F":0,"ELEVTYP_T":0},"geometry":{"type":"LineString","coordinates":[[-74.1333413105327,39.7079296248227],[-74.1339957327901,39.7081207718326],[-74.1340660217124,39.7081381256825],[-74.1340875457378,39.7081395761701]]}},{"type":"Feature","id":304887,"properties":{"OBJECTID":304887,"PRIMENAME":"William Street","ELEVTYP_F":0,"ELEVTYP_T":0},"geometry":{"type":"LineString","coordinates":[[-74.1468127877874,39.6857799401698],[-74.1469548415274,39.6858384123268]]}},{"type":"Feature","id":307331,"properties":{"OBJECTID":307331,"PRIMENAME":"East 86th Street","ELEVTYP_F":0,"ELEVTYP_T":0},"geometry":{"type":"LineString","coordinates":[[-74.1306404577493,39.7110157617558],[-74.1318008499445,39.7113542053987]]}},{"type":"Feature","id":311051,"properties":{"OBJECTID":311051,"PRIMENAME":"North Long Beach Boulevard","ELEVTYP_F":0,"ELEVTYP_T":0},"geometry":{"type":"LineString","coordinates":[[-74.1333413105327,39.7079296248227],[-74.1330922472126,39.7084449366225],[-74.1330217653807,39.7085914328882]]}},{"type":"Feature","id":312456,"properties":{"OBJECTID":312456,"PRIMENAME":"Kinsey Lane","ELEVTYP_F":0,"ELEVTYP_T":0},"geometry":{"type":"LineString","coordinates":[[-74.1336988730655,39.7091988160174],[-74.1351024117237,39.7096142368176]]}},{"type":"Feature","id":313371,"properties":{"OBJECTID":313371,"PRIMENAME":"Barnegat Avenue","ELEVTYP_F":0,"ELEVTYP_T":0},"geometry":{"type":"LineString","coordinates":[[-74.1404730591414,39.6988988847382],[-74.1407919760883,39.699035087486],[-74.1408526105772,39.6990553996816],[-74.14089595384,39.6990655546177],[-74.1409436855313,39.6990657022222],[-74.1409784434877,39.6990591387126],[-74.1410501968801,39.6990325369976],[-74.1419197498973,39.6987167431417],[-74.1424758996319,39.6985130642535],[-74.1428001699515,39.6983943051919],[-74.1428349276868,39.6983876852776],[-74.1428674831055,39.6983877854094],[-74.1428999763453,39.6983929367686],[-74.142960655814,39.69841154648],[-74.1429834019987,39.6984210193871]]}},{"type":"Feature","id":315380,"properties":{"OBJECTID":315380,"PRIMENAME":"East Atlantic Avenue","ELEVTYP_F":0,"ELEVTYP_T":0},"geometry":{"type":"LineString","coordinates":[[-74.1407433552475,39.6952784288962],[-74.1394924752022,39.6948407083385]]}},{"type":"Feature","id":315659,"properties":{"OBJECTID":315659,"PRIMENAME":"West Atlantic Avenue","ELEVTYP_F":0,"ELEVTYP_T":0},"geometry":{"type":"LineString","coordinates":[[-74.1414065790351,39.6955215892099],[-74.1407433552475,39.6952784288962]]}},{"type":"Feature","id":317531,"properties":{"OBJECTID":317531,"PRIMENAME":"East 75th Street","ELEVTYP_F":0,"ELEVTYP_T":0},"geometry":{"type":"LineString","coordinates":[[-74.1343528675293,39.7035946507521],[-74.1355250797176,39.7039364724977]]}},{"type":"Feature","id":319076,"properties":{"OBJECTID":319076,"PRIMENAME":"Anchor Street","ELEVTYP_F":0,"ELEVTYP_T":0},"geometry":{"type":"LineString","coordinates":[[-74.1340875457378,39.7081395761701],[-74.134110438398,39.708141120141],[-74.1341548701635,39.7081412601462],[-74.1341882217284,39.7081327999737],[-74.1342179521554,39.7081099956151],[-74.1342403492401,39.708075747511]]}},{"type":"Feature","id":319296,"properties":{"OBJECTID":319296,"PRIMENAME":"North Long Beach Boulevard","ELEVTYP_F":0,"ELEVTYP_T":0},"geometry":{"type":"LineString","coordinates":[[-74.1375476138145,39.700142590578],[-74.1373926505143,39.7003734977234],[-74.1373048697804,39.700507752899]]}},{"type":"Feature","id":322858,"properties":{"OBJECTID":322858,"PRIMENAME":"North Long Beach Boulevard","ELEVTYP_F":0,"ELEVTYP_T":0},"geometry":{"type":"LineString","coordinates":[[-74.1447121074448,39.6892367681239],[-74.1445081238618,39.6895458433379]]}},{"type":"Feature","id":323326,"properties":{"OBJECTID":323326,"PRIMENAME":"North Long Beach Boulevard","ELEVTYP_F":0,"ELEVTYP_T":0},"geometry":{"type":"LineString","coordinates":[[-74.145049755982,39.6887192772477],[-74.1449350220114,39.6888969634995]]}},{"type":"Feature","id":334572,"properties":{"OBJECTID":334572,"PRIMENAME":"North Long Beach Boulevard","ELEVTYP_F":0,"ELEVTYP_T":0},"geometry":{"type":"LineString","coordinates":[[-74.1336749444181,39.7072710714256],[-74.1336238013124,39.7073570093716],[-74.1334965693298,39.7076083149558],[-74.1333413105327,39.7079296248227]]}},{"type":"Feature","id":336083,"properties":{"OBJECTID":336083,"PRIMENAME":"Warwick Avenue","ELEVTYP_F":0,"ELEVTYP_T":0},"geometry":{"type":"LineString","coordinates":[[-74.1373048697804,39.700507752899],[-74.1382146523738,39.7008597915649],[-74.1399718066625,39.7015506263973],[-74.1401137467798,39.7016064294108]]}},{"type":"Feature","id":336829,"properties":{"OBJECTID":336829,"PRIMENAME":"Bay Terrace","ELEVTYP_F":0,"ELEVTYP_T":0},"geometry":{"type":"LineString","coordinates":[[-74.1370511297547,39.709016252612],[-74.1369783666019,39.7091653806465],[-74.1368062249097,39.7095023189811],[-74.1367764709923,39.7095365445589],[-74.136739295878,39.7095621807594],[-74.1366873644206,39.7095820329853],[-74.1366317611113,39.7095904251385],[-74.1365688888773,39.7095816622098],[-74.1365133905863,39.7095700399252],[-74.136465321086,39.7095584408736],[-74.1364172064955,39.7095554348352],[-74.1363579362643,39.7095581046069],[-74.1363134284745,39.7095722691474],[-74.1362799862181,39.7095979168927],[-74.1362389652019,39.7096520947234],[-74.1361076347287,39.7099805936869],[-74.1361000467605,39.7100177439384],[-74.136099821453,39.7100606280321],[-74.1360884992311,39.7100977665787],[-74.1360698141801,39.7101291983016],[-74.1360437505505,39.710157697464],[-74.1359916831092,39.7102033014467],[-74.1359433727034,39.7102374686289],[-74.1353302755454,39.7106388031685],[-74.1351822879189,39.7107204841457],[-74.1351000465415,39.7107580581887],[-74.1350697910639,39.7107687928387]]}},{"type":"Feature","id":337564,"properties":{"OBJECTID":337564,"PRIMENAME":"West 83rd Street","ELEVTYP_F":0,"ELEVTYP_T":0},"geometry":{"type":"LineString","coordinates":[[-74.1349370792937,39.7099185495886],[-74.1351929857934,39.7099920274753]]}},{"type":"Feature","id":340244,"properties":{"OBJECTID":340244,"PRIMENAME":"Holly Avenue","ELEVTYP_F":0,"ELEVTYP_T":0},"geometry":{"type":"LineString","coordinates":[[-74.1459971179501,39.6882657112697],[-74.1457731281167,39.6886425897937],[-74.1453255095489,39.6893104415305],[-74.1448591480803,39.6900211731343],[-74.1446033248796,39.6904081115287]]}},{"type":"Feature","id":341242,"properties":{"OBJECTID":341242,"PRIMENAME":"North Long Beach Boulevard","ELEVTYP_F":0,"ELEVTYP_T":0},"geometry":{"type":"LineString","coordinates":[[-74.1407433552475,39.6952784288962],[-74.1404303295432,39.6957499344662],[-74.1403154530923,39.6959267102063]]}},{"type":"Feature","id":341419,"properties":{"OBJECTID":341419,"PRIMENAME":"Maiden Lane","ELEVTYP_F":0,"ELEVTYP_T":0},"geometry":{"type":"LineString","coordinates":[[-74.1358212673294,39.7075266478381],[-74.1365267170196,39.7077283191025],[-74.136986967923,39.7078615173984],[-74.1371285192798,39.7079024811048]]}},{"type":"Feature","id":342524,"properties":{"OBJECTID":342524,"PRIMENAME":"West 83rd Street","ELEVTYP_F":0,"ELEVTYP_T":0},"geometry":{"type":"LineString","coordinates":[[-74.133529175381,39.7095142877555],[-74.1341549073758,39.7096939613796]]}},{"type":"Feature","id":343036,"properties":{"OBJECTID":343036,"PRIMENAME":"West 82nd Street","ELEVTYP_F":0,"ELEVTYP_T":0},"geometry":{"type":"LineString","coordinates":[[-74.1330217653807,39.7085914328882],[-74.1335212403893,39.7087436936677]]}},{"type":"Feature","id":343079,"properties":{"OBJECTID":343079,"PRIMENAME":"Harvest Avenue","ELEVTYP_F":0,"ELEVTYP_T":0},"geometry":{"type":"LineString","coordinates":[[-74.1404730591414,39.6988988847382],[-74.1399837155145,39.6996395878197]]}},{"type":"Feature","id":345662,"properties":{"OBJECTID":345662,"PRIMENAME":"East 81st Street","ELEVTYP_F":0,"ELEVTYP_T":0},"geometry":{"type":"LineString","coordinates":[[-74.1322544427445,39.7076176205098],[-74.1333413105327,39.7079296248227]]}},{"type":"Feature","id":347736,"properties":{"OBJECTID":347736,"PRIMENAME":"William Street","ELEVTYP_F":0,"ELEVTYP_T":0},"geometry":{"type":"LineString","coordinates":[[-74.1469548415274,39.6858384123268],[-74.1472581131278,39.6859582210872],[-74.1483904425928,39.6864055421439]]}},{"type":"Feature","id":350053,"properties":{"OBJECTID":350053,"PRIMENAME":"North Long Beach Boulevard","ELEVTYP_F":0,"ELEVTYP_T":0},"geometry":{"type":"LineString","coordinates":[[-74.1321503106219,39.7106932911874],[-74.1320651905214,39.7108039670771],[-74.1320203012303,39.7108896223235],[-74.1319003997692,39.7111437496573],[-74.1318008499445,39.7113542053987]]}},{"type":"Feature","id":352881,"properties":{"OBJECTID":352881,"PRIMENAME":"Long Beach Boulevard","ELEVTYP_F":0,"ELEVTYP_T":0},"geometry":{"type":"LineString","coordinates":[[-74.1314410910089,39.7120986863361],[-74.1312887756809,39.7124176407547],[-74.1311411018397,39.7127239091044]]}},{"type":"Feature","id":354202,"properties":{"OBJECTID":354202,"PRIMENAME":"North Long Beach Boulevard","ELEVTYP_F":0,"ELEVTYP_T":0},"geometry":{"type":"LineString","coordinates":[[-74.1471476279364,39.6852656292806],[-74.1470167700979,39.6854632339728],[-74.1469831912987,39.6855258668507],[-74.1468522428592,39.6857184106252]]}},{"type":"Feature","id":356678,"properties":{"OBJECTID":356678,"PRIMENAME":"Long Beach Boulevard","ELEVTYP_F":0,"ELEVTYP_T":0},"geometry":{"type":"LineString","coordinates":[[-74.1311411018397,39.7127239091044],[-74.1306665357009,39.7137080971973]]}},{"type":"Feature","id":356849,"properties":{"OBJECTID":356849,"PRIMENAME":"Unnamed Segment","ELEVTYP_F":0,"ELEVTYP_T":0},"geometry":{"type":"LineString","coordinates":[[-74.1463159417377,39.6867664211236],[-74.1468724334945,39.6869630481267],[-74.1480384340408,39.6873660469711]]}},{"type":"Feature","id":358114,"properties":{"OBJECTID":358114,"PRIMENAME":"Long Beach Boulevard","ELEVTYP_F":0,"ELEVTYP_T":0},"geometry":{"type":"LineString","coordinates":[[-74.1468127877874,39.6857799401698],[-74.1467518847542,39.6858769455846],[-74.1467257238836,39.6859340549935],[-74.1467143105542,39.685991209262],[-74.1467029029384,39.686054101361],[-74.1466728744907,39.6861311867617]]}},{"type":"Feature","id":360860,"properties":{"OBJECTID":360860,"PRIMENAME":"North Long Beach Boulevard","ELEVTYP_F":0,"ELEVTYP_T":0},"geometry":{"type":"LineString","coordinates":[[-74.147302783163,39.6850313356749],[-74.1471476279364,39.6852656292806]]}},{"type":"Feature","id":370612,"properties":{"OBJECTID":370612,"PRIMENAME":"124th Street","ELEVTYP_F":0,"ELEVTYP_T":0},"geometry":{"type":"LineString","coordinates":[[-74.1473049578641,39.6853009574661],[-74.1479214349865,39.6855240475071],[-74.1489094326847,39.6859310475886]]}},{"type":"Feature","id":372867,"properties":{"OBJECTID":372867,"PRIMENAME":"Long Beach Boulevard","ELEVTYP_F":0,"ELEVTYP_T":0},"geometry":{"type":"LineString","coordinates":[[-74.1306665357009,39.7137080971973],[-74.1303517114008,39.7143609893568]]}},{"type":"Feature","id":382011,"properties":{"OBJECTID":382011,"PRIMENAME":"North Long Beach Boulevard","ELEVTYP_F":0,"ELEVTYP_T":0},"geometry":{"type":"LineString","coordinates":[[-74.1318008499445,39.7113542053987],[-74.1317693920151,39.7114207387393],[-74.1316682422628,39.7116378062031],[-74.1316392796267,39.7116936437894],[-74.1315869796767,39.7117944728233]]}},{"type":"Feature","id":383134,"properties":{"OBJECTID":383134,"PRIMENAME":"Long Beach Boulevard","ELEVTYP_F":0,"ELEVTYP_T":0},"geometry":{"type":"LineString","coordinates":[[-74.1315869796767,39.7117944728233],[-74.1315776612729,39.7118124348675],[-74.1314410910089,39.7120986863361]]}},{"type":"Feature","id":383788,"properties":{"OBJECTID":383788,"PRIMENAME":"Long Beach Boulevard","ELEVTYP_F":0,"ELEVTYP_T":0},"geometry":{"type":"LineString","coordinates":[[-74.1466728744907,39.6861311867617],[-74.1465865418165,39.6862880771226]]}},{"type":"Feature","id":394168,"properties":{"OBJECTID":394168,"PRIMENAME":"North Long Beach Boulevard","ELEVTYP_F":0,"ELEVTYP_T":0},"geometry":{"type":"LineString","coordinates":[[-74.1468522428592,39.6857184106252],[-74.1468415196718,39.6857341772738],[-74.1468383403092,39.6857392397614]]}},{"type":"Feature","id":399618,"properties":{"OBJECTID":399618,"PRIMENAME":"North Long Beach Boulevard","ELEVTYP_F":0,"ELEVTYP_T":0},"geometry":{"type":"LineString","coordinates":[[-74.1468383403092,39.6857392397614],[-74.1468127877874,39.6857799401698]]}},{"type":"Feature","id":401139,"properties":{"OBJECTID":401139,"PRIMENAME":"Long Beach Boulevard","ELEVTYP_F":0,"ELEVTYP_T":0},"geometry":{"type":"LineString","coordinates":[[-74.1303517114008,39.7143609893568],[-74.1302216739067,39.7146306583053],[-74.1300493634559,39.7149904557701],[-74.1293004282763,39.716546711089],[-74.1290981535054,39.7169636279228],[-74.1289748021528,39.7172198171483],[-74.1288208125177,39.7175396291871]]}}]}
