{"type":"Feature","properties":{"MUN":"HARVEY CEDARS BORO","COUNTY":"OCEAN","MUN_LABEL":"Harvey Cedars Borough","MUN_TYPE":"Borough","NAME":"Harvey Cedars Borough","GNIS_NAME":"Borough of Harvey Cedars"},"geometry":{"type":"Polygon","coordinates":[[[-74.1296699,39.7111292],[-74.1296701,39.7111285],[-74.1296804,39.7110671],[-74.1296973,39.7110007],[-74.1297408,39.7109215],[-74.1299213,39.7106075],[-74.1299649,39.7105079],[-74.130002,39.7103801],[-74.1300156,39.710306],[-74.1300162,39.7101935],[-74.1300099,39.7101398],[-74.1299902,39.7101039],[-74.129954,39.710068],[-74.1299342,39.7100474],[-74.1299324,39.7100369],[-74.1299278,39.7100091],[-74.129928,39.7099681],[-74.1299515,39.7099145],[-74.1300215,39.7098175],[-74.1300455,39.7097885],[-74.1301415,39.7096721],[-74.1302416,39.7095395],[-74.1303251,39.709394],[-74.1304259,39.7091232],[-74.1305396,39.708924],[-74.1306031,39.7088143],[-74.1307864,39.7085847],[-74.1308832,39.7084494],[-74.1309366,39.708355],[-74.1309637,39.7082476],[-74.1309643,39.7081274],[-74.1309582,39.7080353],[-74.1309585,39.7079816],[-74.1309653,39.7079458],[-74.131002,39.7078948],[-74.1310919,39.7077953],[-74.1314055,39.7073692],[-74.1316727,39.7069327],[-74.1318832,39.7065702],[-74.1321246,39.7060109],[-74.1323086,39.7056662],[-74.132352,39.7055819],[-74.1323723,39.7055129],[-74.132376,39.7054388],[-74.1323697,39.7053671],[-74.1323468,39.7053159],[-74.1323471,39.7052729],[-74.1323471,39.7052673],[-74.1323606,39.7052213],[-74.1325806,39.7049509],[-74.1326605,39.7048427],[-74.1330141,39.704364],[-74.1332545,39.7039965],[-74.1333348,39.7038407],[-74.1336589,39.7032842],[-74.1338229,39.7029471],[-74.1338466,39.7028577],[-74.1338469,39.7027963],[-74.1338439,39.70274],[-74.1338209,39.7026914],[-74.1337946,39.702658],[-74.1337919,39.7026541],[-74.1337716,39.7026247],[-74.1337718,39.702594],[-74.1337819,39.7025582],[-74.1338153,39.7024995],[-74.1339722,39.70227],[-74.1340092,39.7021922],[-74.1340885,39.7020387],[-74.1340924,39.702027],[-74.1344931,39.7014428],[-74.1348563,39.7009887],[-74.1349963,39.7008127],[-74.1350365,39.7007386],[-74.1350734,39.7006467],[-74.1350871,39.700547],[-74.1351042,39.7004447],[-74.1351476,39.7003707],[-74.1352708,39.7002534],[-74.1354506,39.7000647],[-74.1356272,39.6998377],[-74.1357975,39.699562],[-74.1361183,39.6990131],[-74.1364052,39.6985997],[-74.1364454,39.6985],[-74.1364491,39.6984335],[-74.1364495,39.6983543],[-74.1364399,39.6982852],[-74.136417,39.6982416],[-74.1364205,39.6981982],[-74.1364406,39.6981573],[-74.1366205,39.6979533],[-74.1368638,39.697642],[-74.1369971,39.6974787],[-74.1373635,39.6970425],[-74.1376934,39.6966395],[-74.1377702,39.6965093],[-74.1378106,39.6963815],[-74.1378108,39.6963457],[-74.1377845,39.6963124],[-74.1377781,39.6962714],[-74.1377849,39.6962356],[-74.1378116,39.6961897],[-74.1380845,39.6959348],[-74.1381577,39.6958506],[-74.1381979,39.695774],[-74.1382714,39.6956336],[-74.1383782,39.6954728],[-74.1386483,39.6951079],[-74.1389221,39.6946663],[-74.1391187,39.6944137],[-74.1392921,39.6941738],[-74.1393857,39.6940053],[-74.1393893,39.6939465],[-74.1393796,39.6938978],[-74.1393666,39.6938569],[-74.1393701,39.6938211],[-74.1393935,39.6937854],[-74.1394934,39.6936655],[-74.1398866,39.6931705],[-74.14017,39.692798],[-74.1404973,39.6922465],[-74.1406874,39.6919735],[-74.1407539,39.6919097],[-74.1408172,39.6918358],[-74.1408539,39.6917873],[-74.1408907,39.6917004],[-74.1409009,39.691657],[-74.1408911,39.6916237],[-74.1408749,39.6915648],[-74.140885,39.6915188],[-74.1409185,39.691455],[-74.1409751,39.6913861],[-74.1411183,39.6912305],[-74.141175,39.6911386],[-74.141325,39.6909396],[-74.1415213,39.6907612],[-74.1418016,39.6903273],[-74.1420552,39.6899444],[-74.1421356,39.6897503],[-74.1421527,39.6896429],[-74.1421398,39.6895866],[-74.1421171,39.6894996],[-74.142105,39.6894447],[-74.1421041,39.6894407],[-74.1421077,39.6893972],[-74.142131,39.6893641],[-74.142171,39.689313],[-74.1423402,39.6891684],[-74.1427297,39.6888084],[-74.1431358,39.6883748],[-74.1434524,39.6879819],[-74.1437553,39.6875116],[-74.1441382,39.6868829],[-74.1441409,39.6868483],[-74.1441126,39.6867762],[-74.1440593,39.6866902],[-74.1440594,39.6866598],[-74.1440776,39.68661],[-74.1441051,39.6865723],[-74.1441642,39.6864911],[-74.1445695,39.6860875],[-74.1445966,39.6860604],[-74.1449672,39.685684],[-74.1453937,39.6851446],[-74.1467529,39.6857041],[-74.1467667,39.6856832],[-74.1468546,39.6857194],[-74.146996,39.6857776],[-74.1484309,39.6863444],[-74.1591976,39.6905969],[-74.1592399,39.6906136],[-74.1590658,39.6907017],[-74.158907,39.6907804],[-74.1588316,39.690817],[-74.1587577,39.6908523],[-74.1586846,39.6908868],[-74.1586111,39.6909209],[-74.1584736,39.6909834],[-74.1583203,39.6910515],[-74.1581592,39.6911217],[-74.1577914,39.6912811],[-74.1577062,39.6913177],[-74.157617,39.6913553],[-74.1575231,39.6913942],[-74.157423,39.691435],[-74.1572152,39.6915182],[-74.1567971,39.6916827],[-74.156621,39.6917527],[-74.1564369,39.6918273],[-74.156353,39.691862],[-74.1562729,39.6918957],[-74.1557312,39.692125],[-74.1555657,39.6921956],[-74.1554174,39.6922593],[-74.1552664,39.6923248],[-74.155125,39.6923869],[-74.1549907,39.6924467],[-74.1548625,39.6925046],[-74.1547311,39.6925649],[-74.1546046,39.6926239],[-74.1544823,39.6926821],[-74.1543639,39.6927395],[-74.1542488,39.6927964],[-74.1541369,39.6928529],[-74.1540279,39.6929092],[-74.1539216,39.6929653],[-74.1538726,39.6929911],[-74.1537493,39.6930552],[-74.153684,39.6930902],[-74.1536482,39.69311],[-74.1536153,39.693129],[-74.1535846,39.6931475],[-74.1535557,39.6931656],[-74.1535188,39.6931899],[-74.1534812,39.693216],[-74.1534425,39.6932441],[-74.1534021,39.6932746],[-74.1533624,39.6933055],[-74.153319,39.6933404],[-74.1531878,39.6934484],[-74.1531311,39.6934958],[-74.1530737,39.693545],[-74.1530154,39.6935964],[-74.1529559,39.69365],[-74.1528951,39.693706],[-74.1528324,39.693765],[-74.1527669,39.6938277],[-74.1526976,39.6938953],[-74.1525422,39.6940475],[-74.1524949,39.6940949],[-74.1524532,39.694138],[-74.1524118,39.6941822],[-74.152374,39.6942243],[-74.1523393,39.694265],[-74.1523073,39.6943045],[-74.1522736,39.6943487],[-74.1522402,39.6943955],[-74.1522066,39.6944454],[-74.1521722,39.6944992],[-74.1521397,39.6945527],[-74.1521046,39.6946126],[-74.152071,39.6946714],[-74.1519942,39.6948078],[-74.1519508,39.6948861],[-74.1519042,39.6949739],[-74.1518594,39.6950608],[-74.1517598,39.6952569],[-74.1516694,39.6954319],[-74.1516319,39.6955055],[-74.1515941,39.6955819],[-74.1515615,39.6956509],[-74.1515413,39.6956956],[-74.1515208,39.6957424],[-74.1514999,39.6957916],[-74.1514782,39.6958441],[-74.1514344,39.6959539],[-74.1513625,39.6961387],[-74.1513394,39.6961988],[-74.1513167,39.6962601],[-74.1512942,39.6963228],[-74.1512718,39.6963869],[-74.1512497,39.6964526],[-74.1512275,39.6965202],[-74.1512054,39.6965898],[-74.1511832,39.6966617],[-74.1511393,39.6968096],[-74.1510929,39.6969734],[-74.151046,39.6971451],[-74.1509551,39.6974845],[-74.1509167,39.6976263],[-74.1508756,39.6977745],[-74.1508374,39.6979073],[-74.1508142,39.6979852],[-74.1507913,39.69806],[-74.1507686,39.6981321],[-74.1507459,39.698202],[-74.1507232,39.69827],[-74.1507003,39.6983363],[-74.1506772,39.6984009],[-74.1506539,39.6984642],[-74.1505999,39.6986075],[-74.1505545,39.698726],[-74.1505181,39.6988191],[-74.1504834,39.698906],[-74.1504498,39.6989883],[-74.1504168,39.6990669],[-74.1503672,39.6991812],[-74.1503144,39.6992987],[-74.1502582,39.69942],[-74.150198,39.699546],[-74.150134,39.6996764],[-74.1500647,39.6998146],[-74.1499888,39.6999631],[-74.1499023,39.7001295],[-74.1498067,39.7003118],[-74.1497287,39.7004591],[-74.1496573,39.7005926],[-74.1495904,39.7007157],[-74.149525,39.7008342],[-74.1494618,39.7009466],[-74.1494001,39.7010543],[-74.1493396,39.7011577],[-74.149278,39.7012606],[-74.1492171,39.70136],[-74.1491564,39.7014565],[-74.149096,39.7015503],[-74.1490355,39.7016416],[-74.148975,39.7017306],[-74.1489142,39.7018175],[-74.1488532,39.7019023],[-74.1487801,39.7020012],[-74.1487042,39.7021012],[-74.1486255,39.7022025],[-74.1485439,39.7023052],[-74.1484594,39.7024093],[-74.1483716,39.702515],[-74.1482806,39.7026227],[-74.1481859,39.7027325],[-74.1481349,39.7027904],[-74.148082,39.702849],[-74.1480272,39.7029084],[-74.1479701,39.7029687],[-74.1479109,39.7030301],[-74.1478491,39.7030929],[-74.1477845,39.7031573],[-74.1477166,39.7032238],[-74.1476576,39.7032809],[-74.1475954,39.7033403],[-74.1474588,39.7034687],[-74.1473236,39.7035938],[-74.1469774,39.703912],[-74.1468783,39.704004],[-74.1467898,39.7040872],[-74.146692,39.7041803],[-74.1466017,39.7042682],[-74.1465169,39.7043523],[-74.146437,39.7044335],[-74.1463806,39.7044909],[-74.146321,39.7045506],[-74.1462575,39.7046132],[-74.1461888,39.7046798],[-74.146059,39.7048039],[-74.1457356,39.7051098],[-74.1456463,39.7051954],[-74.1455667,39.7052729],[-74.1454817,39.7053573],[-74.1454032,39.705437],[-74.1453299,39.7055135],[-74.1452612,39.7055873],[-74.145219,39.7056339],[-74.1451784,39.7056797],[-74.1451393,39.705725],[-74.1451016,39.7057697],[-74.1450652,39.7058139],[-74.1450301,39.7058578],[-74.1449963,39.7059013],[-74.1449636,39.7059445],[-74.1449322,39.7059875],[-74.1449019,39.7060302],[-74.1448727,39.7060728],[-74.1448447,39.7061152],[-74.1448178,39.7061574],[-74.144792,39.7061995],[-74.1447672,39.7062416],[-74.1447436,39.7062835],[-74.1447196,39.7063288],[-74.1446944,39.7063799],[-74.1446715,39.7064289],[-74.1446187,39.7065446],[-74.1445918,39.7066014],[-74.1445654,39.7066532],[-74.1445397,39.7066997],[-74.1445201,39.7067324],[-74.1444969,39.7067686],[-74.1444209,39.7068811],[-74.1443959,39.7069189],[-74.1443746,39.7069528],[-74.1443563,39.7069841],[-74.1443347,39.707024],[-74.1443139,39.7070662],[-74.1442935,39.7071111],[-74.1442733,39.7071594],[-74.144256,39.707204],[-74.1442376,39.7072537],[-74.1441754,39.7074321],[-74.1441495,39.7075036],[-74.1441348,39.7075415],[-74.1441205,39.7075768],[-74.1441063,39.7076101],[-74.1440919,39.7076417],[-74.144069,39.7076893],[-74.1440428,39.707741],[-74.1440113,39.707801],[-74.1439428,39.7079284],[-74.1439134,39.7079839],[-74.1438832,39.7080429],[-74.1438574,39.7080961],[-74.1438188,39.7081802],[-74.1437778,39.7082741],[-74.1437369,39.7083715],[-74.1436584,39.7085617],[-74.1435771,39.7087597],[-74.1434992,39.7089543],[-74.1434243,39.7091457],[-74.1433526,39.7093342],[-74.1432837,39.7095201],[-74.1432178,39.7097035],[-74.1431547,39.7098847],[-74.1430943,39.7100636],[-74.1430572,39.7101776],[-74.1430205,39.7102941],[-74.1429841,39.7104132],[-74.142948,39.7105352],[-74.142912,39.7106605],[-74.1428762,39.7107894],[-74.1428401,39.7109227],[-74.1428038,39.711061],[-74.1427707,39.7111901],[-74.1427369,39.7113252],[-74.142702,39.7114676],[-74.1426653,39.7116202],[-74.1426006,39.7118943],[-74.1424317,39.7126203],[-74.1423588,39.7129337],[-74.1422877,39.7132473],[-74.1422182,39.7135611],[-74.1421506,39.7138752],[-74.1420846,39.7141896],[-74.1420204,39.7145042],[-74.141958,39.714819],[-74.1418973,39.7151341],[-74.141855,39.7153568],[-74.1296699,39.7111292]]]}}
